{
  "type": "FeatureCollection",
  "metadata": {
    "updated_utc": "2026-10-06T12:08:27.931303+00:00",
    "rolling_days": 30,
    "oldest_file": "deepstatemap_data_20260906.geojson",
    "latest_file": "deepstatemap_data_20261006.geojson",
    "oldest_date": "2026-09-06",
    "latest_date": "2026-10-06",
    "feature_count": 46,
    "russian_gain_km2": 127.43,
    "ukrainian_recapture_km2": 84.91,
    "net_change_km2": 42.52,
    "source": "DeepState public GeoJSON files",
    "method": "Rolling Shapely geometric difference between consecutive DeepState GeoJSON files for the latest 30 daily intervals. Area is approximate.",
    "usage": {
      "dashboard_filter_5_days": "day_index_from_latest <= 4",
      "dashboard_filter_10_days": "day_index_from_latest <= 9",
      "dashboard_filter_15_days": "day_index_from_latest <= 14",
      "dashboard_filter_30_days": "day_index_from_latest <= 29"
    },
    "daily_summaries": [
      {
        "previous_date": "2026-09-06",
        "current_date": "2026-09-07",
        "previous_file": "deepstatemap_data_20260906.geojson",
        "current_file": "deepstatemap_data_20260907.geojson",
        "russian_gain_km2": 3.41,
        "ukrainian_recapture_km2": 0,
        "net_change_km2": 3.41,
        "day_index_from_latest": 29
      },
      {
        "previous_date": "2026-09-07",
        "current_date": "2026-09-08",
        "previous_file": "deepstatemap_data_20260907.geojson",
        "current_file": "deepstatemap_data_20260908.geojson",
        "russian_gain_km2": 6.54,
        "ukrainian_recapture_km2": 0,
        "net_change_km2": 6.54,
        "day_index_from_latest": 28
      },
      {
        "previous_date": "2026-09-08",
        "current_date": "2026-09-09",
        "previous_file": "deepstatemap_data_20260908.geojson",
        "current_file": "deepstatemap_data_20260909.geojson",
        "russian_gain_km2": 14.52,
        "ukrainian_recapture_km2": 0,
        "net_change_km2": 14.52,
        "day_index_from_latest": 27
      },
      {
        "previous_date": "2026-09-09",
        "current_date": "2026-09-10",
        "previous_file": "deepstatemap_data_20260909.geojson",
        "current_file": "deepstatemap_data_20260910.geojson",
        "russian_gain_km2": 13.31,
        "ukrainian_recapture_km2": 0.12,
        "net_change_km2": 13.19,
        "day_index_from_latest": 26
      },
      {
        "previous_date": "2026-09-10",
        "current_date": "2026-09-11",
        "previous_file": "deepstatemap_data_20260910.geojson",
        "current_file": "deepstatemap_data_20260911.geojson",
        "russian_gain_km2": 0,
        "ukrainian_recapture_km2": 0,
        "net_change_km2": 0,
        "day_index_from_latest": 25
      },
      {
        "previous_date": "2026-09-11",
        "current_date": "2026-09-12",
        "previous_file": "deepstatemap_data_20260911.geojson",
        "current_file": "deepstatemap_data_20260912.geojson",
        "russian_gain_km2": 3.95,
        "ukrainian_recapture_km2": 0,
        "net_change_km2": 3.95,
        "day_index_from_latest": 24
      },
      {
        "previous_date": "2026-09-12",
        "current_date": "2026-09-13",
        "previous_file": "deepstatemap_data_20260912.geojson",
        "current_file": "deepstatemap_data_20260913.geojson",
        "russian_gain_km2": 3.47,
        "ukrainian_recapture_km2": 0,
        "net_change_km2": 3.47,
        "day_index_from_latest": 23
      },
      {
        "previous_date": "2026-09-13",
        "current_date": "2026-09-14",
        "previous_file": "deepstatemap_data_20260913.geojson",
        "current_file": "deepstatemap_data_20260914.geojson",
        "russian_gain_km2": 1.28,
        "ukrainian_recapture_km2": 0,
        "net_change_km2": 1.28,
        "day_index_from_latest": 22
      },
      {
        "previous_date": "2026-09-14",
        "current_date": "2026-09-15",
        "previous_file": "deepstatemap_data_20260914.geojson",
        "current_file": "deepstatemap_data_20260915.geojson",
        "russian_gain_km2": 11.52,
        "ukrainian_recapture_km2": 9.75,
        "net_change_km2": 1.77,
        "day_index_from_latest": 21
      },
      {
        "previous_date": "2026-09-15",
        "current_date": "2026-09-16",
        "previous_file": "deepstatemap_data_20260915.geojson",
        "current_file": "deepstatemap_data_20260916.geojson",
        "russian_gain_km2": 0,
        "ukrainian_recapture_km2": 0,
        "net_change_km2": 0,
        "day_index_from_latest": 20
      },
      {
        "previous_date": "2026-09-16",
        "current_date": "2026-09-17",
        "previous_file": "deepstatemap_data_20260916.geojson",
        "current_file": "deepstatemap_data_20260917.geojson",
        "russian_gain_km2": 0,
        "ukrainian_recapture_km2": 0,
        "net_change_km2": 0,
        "day_index_from_latest": 19
      },
      {
        "previous_date": "2026-09-17",
        "current_date": "2026-09-18",
        "previous_file": "deepstatemap_data_20260917.geojson",
        "current_file": "deepstatemap_data_20260918.geojson",
        "russian_gain_km2": 4.03,
        "ukrainian_recapture_km2": 0,
        "net_change_km2": 4.03,
        "day_index_from_latest": 18
      },
      {
        "previous_date": "2026-09-18",
        "current_date": "2026-09-19",
        "previous_file": "deepstatemap_data_20260918.geojson",
        "current_file": "deepstatemap_data_20260919.geojson",
        "russian_gain_km2": 4.94,
        "ukrainian_recapture_km2": 0.02,
        "net_change_km2": 4.92,
        "day_index_from_latest": 17
      },
      {
        "previous_date": "2026-09-19",
        "current_date": "2026-09-20",
        "previous_file": "deepstatemap_data_20260919.geojson",
        "current_file": "deepstatemap_data_20260920.geojson",
        "russian_gain_km2": 0.25,
        "ukrainian_recapture_km2": 26.09,
        "net_change_km2": -25.84,
        "day_index_from_latest": 16
      },
      {
        "previous_date": "2026-09-20",
        "current_date": "2026-09-21",
        "previous_file": "deepstatemap_data_20260920.geojson",
        "current_file": "deepstatemap_data_20260921.geojson",
        "russian_gain_km2": 0,
        "ukrainian_recapture_km2": 0,
        "net_change_km2": 0,
        "day_index_from_latest": 15
      },
      {
        "previous_date": "2026-09-21",
        "current_date": "2026-09-22",
        "previous_file": "deepstatemap_data_20260921.geojson",
        "current_file": "deepstatemap_data_20260922.geojson",
        "russian_gain_km2": 0,
        "ukrainian_recapture_km2": 0,
        "net_change_km2": 0,
        "day_index_from_latest": 14
      },
      {
        "previous_date": "2026-09-22",
        "current_date": "2026-09-23",
        "previous_file": "deepstatemap_data_20260922.geojson",
        "current_file": "deepstatemap_data_20260923.geojson",
        "russian_gain_km2": 5.84,
        "ukrainian_recapture_km2": 5.42,
        "net_change_km2": 0.42,
        "day_index_from_latest": 13
      },
      {
        "previous_date": "2026-09-23",
        "current_date": "2026-09-24",
        "previous_file": "deepstatemap_data_20260923.geojson",
        "current_file": "deepstatemap_data_20260924.geojson",
        "russian_gain_km2": 0,
        "ukrainian_recapture_km2": 0,
        "net_change_km2": 0,
        "day_index_from_latest": 12
      },
      {
        "previous_date": "2026-09-24",
        "current_date": "2026-09-25",
        "previous_file": "deepstatemap_data_20260924.geojson",
        "current_file": "deepstatemap_data_20260925.geojson",
        "russian_gain_km2": 5.87,
        "ukrainian_recapture_km2": 0,
        "net_change_km2": 5.87,
        "day_index_from_latest": 11
      },
      {
        "previous_date": "2026-09-25",
        "current_date": "2026-09-26",
        "previous_file": "deepstatemap_data_20260925.geojson",
        "current_file": "deepstatemap_data_20260926.geojson",
        "russian_gain_km2": 0,
        "ukrainian_recapture_km2": 0,
        "net_change_km2": 0,
        "day_index_from_latest": 10
      },
      {
        "previous_date": "2026-09-26",
        "current_date": "2026-09-27",
        "previous_file": "deepstatemap_data_20260926.geojson",
        "current_file": "deepstatemap_data_20260927.geojson",
        "russian_gain_km2": 6.11,
        "ukrainian_recapture_km2": 0,
        "net_change_km2": 6.11,
        "day_index_from_latest": 9
      },
      {
        "previous_date": "2026-09-27",
        "current_date": "2026-09-28",
        "previous_file": "deepstatemap_data_20260927.geojson",
        "current_file": "deepstatemap_data_20260928.geojson",
        "russian_gain_km2": 12.11,
        "ukrainian_recapture_km2": 42.93,
        "net_change_km2": -30.82,
        "day_index_from_latest": 8
      },
      {
        "previous_date": "2026-09-28",
        "current_date": "2026-09-29",
        "previous_file": "deepstatemap_data_20260928.geojson",
        "current_file": "deepstatemap_data_20260929.geojson",
        "russian_gain_km2": 0,
        "ukrainian_recapture_km2": 0,
        "net_change_km2": 0,
        "day_index_from_latest": 7
      },
      {
        "previous_date": "2026-09-29",
        "current_date": "2026-09-30",
        "previous_file": "deepstatemap_data_20260929.geojson",
        "current_file": "deepstatemap_data_20260930.geojson",
        "russian_gain_km2": 3.39,
        "ukrainian_recapture_km2": 0.58,
        "net_change_km2": 2.81,
        "day_index_from_latest": 6
      },
      {
        "previous_date": "2026-09-30",
        "current_date": "2026-10-01",
        "previous_file": "deepstatemap_data_20260930.geojson",
        "current_file": "deepstatemap_data_20261001.geojson",
        "russian_gain_km2": 8.62,
        "ukrainian_recapture_km2": 0,
        "net_change_km2": 8.62,
        "day_index_from_latest": 5
      },
      {
        "previous_date": "2026-10-01",
        "current_date": "2026-10-02",
        "previous_file": "deepstatemap_data_20261001.geojson",
        "current_file": "deepstatemap_data_20261002.geojson",
        "russian_gain_km2": 0,
        "ukrainian_recapture_km2": 0,
        "net_change_km2": 0,
        "day_index_from_latest": 4
      },
      {
        "previous_date": "2026-10-02",
        "current_date": "2026-10-03",
        "previous_file": "deepstatemap_data_20261002.geojson",
        "current_file": "deepstatemap_data_20261003.geojson",
        "russian_gain_km2": 8.03,
        "ukrainian_recapture_km2": 0,
        "net_change_km2": 8.03,
        "day_index_from_latest": 3
      },
      {
        "previous_date": "2026-10-03",
        "current_date": "2026-10-04",
        "previous_file": "deepstatemap_data_20261003.geojson",
        "current_file": "deepstatemap_data_20261004.geojson",
        "russian_gain_km2": 8.01,
        "ukrainian_recapture_km2": 0,
        "net_change_km2": 8.01,
        "day_index_from_latest": 2
      },
      {
        "previous_date": "2026-10-04",
        "current_date": "2026-10-05",
        "previous_file": "deepstatemap_data_20261004.geojson",
        "current_file": "deepstatemap_data_20261005.geojson",
        "russian_gain_km2": 2.23,
        "ukrainian_recapture_km2": 0,
        "net_change_km2": 2.23,
        "day_index_from_latest": 1
      },
      {
        "previous_date": "2026-10-05",
        "current_date": "2026-10-06",
        "previous_file": "deepstatemap_data_20261005.geojson",
        "current_file": "deepstatemap_data_20261006.geojson",
        "russian_gain_km2": 0,
        "ukrainian_recapture_km2": 0,
        "net_change_km2": 0,
        "day_index_from_latest": 0
      }
    ]
  },
  "features": [
    {
      "type": "Feature",
      "properties": {
        "change_type": "russian_gain",
        "label": "Russian territorial gain",
        "area_km2": 3.41,
        "previous_file": "deepstatemap_data_20260906.geojson",
        "current_file": "deepstatemap_data_20260907.geojson",
        "previous_date": "2026-09-06",
        "current_date": "2026-09-07",
        "day_number": 1,
        "day_index_from_latest": 29
      },
      "geometry": {
        "type": "Polygon",
        "coordinates": [
          [
            [
              37.728603,
              48.4952574
            ],
            [
              37.740678,
              48.4954071
            ],
            [
              37.7465416,
              48.4863836
            ],
            [
              37.7619519,
              48.4831088
            ],
            [
              37.7485194,
              48.4779388
            ],
            [
              37.7426792,
              48.4812065
            ],
            [
              37.7264872,
              48.4794533
            ],
            [
              37.7161531,
              48.4844196
            ],
            [
              37.728603,
              48.4952574
            ]
          ]
        ]
      }
    },
    {
      "type": "Feature",
      "properties": {
        "change_type": "russian_gain",
        "label": "Russian territorial gain",
        "area_km2": 6.54,
        "previous_file": "deepstatemap_data_20260907.geojson",
        "current_file": "deepstatemap_data_20260908.geojson",
        "previous_date": "2026-09-07",
        "current_date": "2026-09-08",
        "day_number": 2,
        "day_index_from_latest": 28
      },
      "geometry": {
        "type": "Polygon",
        "coordinates": [
          [
            [
              37.1076481,
              48.3790331
            ],
            [
              37.1165817,
              48.3797284
            ],
            [
              37.1323732,
              48.3679468
            ],
            [
              37.1514471,
              48.3686289
            ],
            [
              37.1567877,
              48.3661749
            ],
            [
              37.1646604,
              48.3699789
            ],
            [
              37.1703872,
              48.3790851
            ],
            [
              37.1780989,
              48.3790613
            ],
            [
              37.1792278,
              48.3748093
            ],
            [
              37.1894655,
              48.3718605
            ],
            [
              37.1833952,
              48.3617269
            ],
            [
              37.1660383,
              48.3603032
            ],
            [
              37.1466211,
              48.3654948
            ],
            [
              37.1032779,
              48.3630223
            ],
            [
              37.1028366,
              48.3652814
            ],
            [
              37.1076481,
              48.3790331
            ]
          ]
        ]
      }
    },
    {
      "type": "Feature",
      "properties": {
        "change_type": "russian_gain",
        "label": "Russian territorial gain",
        "area_km2": 8.12,
        "previous_file": "deepstatemap_data_20260908.geojson",
        "current_file": "deepstatemap_data_20260909.geojson",
        "previous_date": "2026-09-08",
        "current_date": "2026-09-09",
        "day_number": 3,
        "day_index_from_latest": 27
      },
      "geometry": {
        "type": "Polygon",
        "coordinates": [
          [
            [
              37.0650569,
              48.2831631
            ],
            [
              37.0610194,
              48.3062881
            ],
            [
              37.06232993974101,
              48.317758203441656
            ],
            [
              37.0862081,
              48.3125835
            ],
            [
              37.0878709,
              48.3024452
            ],
            [
              37.1023468,
              48.2958392
            ],
            [
              37.103509,
              48.2870468
            ],
            [
              37.0543796,
              48.2806922
            ],
            [
              37.0650569,
              48.2831631
            ]
          ]
        ]
      }
    },
    {
      "type": "Feature",
      "properties": {
        "change_type": "russian_gain",
        "label": "Russian territorial gain",
        "area_km2": 4.66,
        "previous_file": "deepstatemap_data_20260908.geojson",
        "current_file": "deepstatemap_data_20260909.geojson",
        "previous_date": "2026-09-08",
        "current_date": "2026-09-09",
        "day_number": 3,
        "day_index_from_latest": 27
      },
      "geometry": {
        "type": "Polygon",
        "coordinates": [
          [
            [
              37.8518439,
              48.7666825
            ],
            [
              37.8420581,
              48.7699899
            ],
            [
              37.835532,
              48.7774829
            ],
            [
              37.8365561,
              48.7783275
            ],
            [
              37.8478847,
              48.7754503
            ],
            [
              37.8705296,
              48.7756264
            ],
            [
              37.8713942,
              48.77989
            ],
            [
              37.8808293,
              48.7792463
            ],
            [
              37.887281,
              48.7697371
            ],
            [
              37.8843638,
              48.7664485
            ],
            [
              37.8648902,
              48.7616472
            ],
            [
              37.8510419,
              48.7607937
            ],
            [
              37.8518439,
              48.7666825
            ]
          ]
        ]
      }
    },
    {
      "type": "Feature",
      "properties": {
        "change_type": "russian_gain",
        "label": "Russian territorial gain",
        "area_km2": 1.74,
        "previous_file": "deepstatemap_data_20260908.geojson",
        "current_file": "deepstatemap_data_20260909.geojson",
        "previous_date": "2026-09-08",
        "current_date": "2026-09-09",
        "day_number": 3,
        "day_index_from_latest": 27
      },
      "geometry": {
        "type": "Polygon",
        "coordinates": [
          [
            [
              37.8925465,
              48.8517133
            ],
            [
              37.888576,
              48.858569
            ],
            [
              37.8920472,
              48.8648272
            ],
            [
              37.8948416,
              48.8626911
            ],
            [
              37.9083825,
              48.8625545
            ],
            [
              37.910422,
              48.8591431
            ],
            [
              37.9070199,
              48.8528587
            ],
            [
              37.8955506,
              48.8514309
            ],
            [
              37.8751016,
              48.8465428
            ],
            [
              37.8925465,
              48.8517133
            ]
          ]
        ]
      }
    },
    {
      "type": "Feature",
      "properties": {
        "change_type": "russian_gain",
        "label": "Russian territorial gain",
        "area_km2": 3.58,
        "previous_file": "deepstatemap_data_20260909.geojson",
        "current_file": "deepstatemap_data_20260910.geojson",
        "previous_date": "2026-09-09",
        "current_date": "2026-09-10",
        "day_number": 4,
        "day_index_from_latest": 26
      },
      "geometry": {
        "type": "Polygon",
        "coordinates": [
          [
            [
              37.0335265,
              48.2587825
            ],
            [
              37.045571,
              48.2537985
            ],
            [
              37.0511652,
              48.2551443
            ],
            [
              37.046086,
              48.252084
            ],
            [
              37.046332,
              48.249762
            ],
            [
              37.040486,
              48.246641
            ],
            [
              37.03835,
              48.244378
            ],
            [
              37.018077,
              48.241751
            ],
            [
              37.012517,
              48.2599323
            ],
            [
              37.0335265,
              48.2587825
            ]
          ]
        ]
      }
    },
    {
      "type": "Feature",
      "properties": {
        "change_type": "russian_gain",
        "label": "Russian territorial gain",
        "area_km2": 4.89,
        "previous_file": "deepstatemap_data_20260909.geojson",
        "current_file": "deepstatemap_data_20260910.geojson",
        "previous_date": "2026-09-09",
        "current_date": "2026-09-10",
        "day_number": 4,
        "day_index_from_latest": 26
      },
      "geometry": {
        "type": "Polygon",
        "coordinates": [
          [
            [
              37.6075652,
              48.4579687
            ],
            [
              37.6199406,
              48.4596229
            ],
            [
              37.6283905,
              48.4654078
            ],
            [
              37.622156,
              48.4856385
            ],
            [
              37.6333687,
              48.4750819
            ],
            [
              37.63848,
              48.450629
            ],
            [
              37.6120284,
              48.443395
            ],
            [
              37.6045168,
              48.4422839
            ],
            [
              37.6075652,
              48.4579687
            ]
          ]
        ]
      }
    },
    {
      "type": "Feature",
      "properties": {
        "change_type": "russian_gain",
        "label": "Russian territorial gain",
        "area_km2": 4.42,
        "previous_file": "deepstatemap_data_20260909.geojson",
        "current_file": "deepstatemap_data_20260910.geojson",
        "previous_date": "2026-09-09",
        "current_date": "2026-09-10",
        "day_number": 4,
        "day_index_from_latest": 26
      },
      "geometry": {
        "type": "Polygon",
        "coordinates": [
          [
            [
              37.6239531,
              48.5255118
            ],
            [
              37.6397744,
              48.5262641
            ],
            [
              37.6494889,
              48.508159
            ],
            [
              37.6646924,
              48.5036842
            ],
            [
              37.6465707,
              48.5001974
            ],
            [
              37.642521,
              48.5077297
            ],
            [
              37.6284163,
              48.5067496
            ],
            [
              37.620349,
              48.4975604
            ],
            [
              37.6239531,
              48.5255118
            ]
          ]
        ]
      }
    },
    {
      "type": "Feature",
      "properties": {
        "change_type": "russian_gain",
        "label": "Russian territorial gain",
        "area_km2": 0.2,
        "previous_file": "deepstatemap_data_20260909.geojson",
        "current_file": "deepstatemap_data_20260910.geojson",
        "previous_date": "2026-09-09",
        "current_date": "2026-09-10",
        "day_number": 4,
        "day_index_from_latest": 26
      },
      "geometry": {
        "type": "Polygon",
        "coordinates": [
          [
            [
              37.795933638637464,
              48.54891589095027
            ],
            [
              37.7959684,
              48.547027
            ],
            [
              37.7702587,
              48.543597
            ],
            [
              37.795933638637464,
              48.54891589095027
            ]
          ]
        ]
      }
    },
    {
      "type": "Feature",
      "properties": {
        "change_type": "russian_gain",
        "label": "Russian territorial gain",
        "area_km2": 0.22,
        "previous_file": "deepstatemap_data_20260909.geojson",
        "current_file": "deepstatemap_data_20260910.geojson",
        "previous_date": "2026-09-09",
        "current_date": "2026-09-10",
        "day_number": 4,
        "day_index_from_latest": 26
      },
      "geometry": {
        "type": "Polygon",
        "coordinates": [
          [
            [
              37.7937931,
              48.5594093
            ],
            [
              37.7879235,
              48.5586318
            ],
            [
              37.7872896,
              48.5603536
            ],
            [
              37.7904849,
              48.5606162
            ],
            [
              37.7921549,
              48.5628455
            ],
            [
              37.7919758,
              48.5639528
            ],
            [
              37.7956517,
              48.5642361
            ],
            [
              37.795760939534475,
              48.55830015408057
            ],
            [
              37.7937931,
              48.5594093
            ]
          ]
        ]
      }
    },
    {
      "type": "Feature",
      "properties": {
        "change_type": "ukrainian_recapture",
        "label": "Ukrainian recapture",
        "area_km2": 0.12,
        "previous_file": "deepstatemap_data_20260909.geojson",
        "current_file": "deepstatemap_data_20260910.geojson",
        "previous_date": "2026-09-09",
        "current_date": "2026-09-10",
        "day_number": 4,
        "day_index_from_latest": 26
      },
      "geometry": {
        "type": "Polygon",
        "coordinates": [
          [
            [
              37.795760939534475,
              48.55830015408057
            ],
            [
              37.7980996,
              48.556982
            ],
            [
              37.7968267,
              48.5491009
            ],
            [
              37.795933638637464,
              48.54891589095027
            ],
            [
              37.795760939534475,
              48.55830015408057
            ]
          ]
        ]
      }
    },
    {
      "type": "Feature",
      "properties": {
        "change_type": "russian_gain",
        "label": "Russian territorial gain",
        "area_km2": 3.95,
        "previous_file": "deepstatemap_data_20260911.geojson",
        "current_file": "deepstatemap_data_20260912.geojson",
        "previous_date": "2026-09-11",
        "current_date": "2026-09-12",
        "day_number": 6,
        "day_index_from_latest": 24
      },
      "geometry": {
        "type": "Polygon",
        "coordinates": [
          [
            [
              37.7844911,
              48.656656
            ],
            [
              37.7818184,
              48.6733697
            ],
            [
              37.7931667,
              48.6788366
            ],
            [
              37.7865928,
              48.6907628
            ],
            [
              37.7966281,
              48.6794159
            ],
            [
              37.8054599,
              48.6800818
            ],
            [
              37.8117061,
              48.6655169
            ],
            [
              37.800272,
              48.6638468
            ],
            [
              37.7872377,
              48.6564292
            ],
            [
              37.7907092,
              48.6459671
            ],
            [
              37.7844911,
              48.656656
            ]
          ]
        ]
      }
    },
    {
      "type": "Feature",
      "properties": {
        "change_type": "russian_gain",
        "label": "Russian territorial gain",
        "area_km2": 3.47,
        "previous_file": "deepstatemap_data_20260912.geojson",
        "current_file": "deepstatemap_data_20260913.geojson",
        "previous_date": "2026-09-12",
        "current_date": "2026-09-13",
        "day_number": 7,
        "day_index_from_latest": 23
      },
      "geometry": {
        "type": "Polygon",
        "coordinates": [
          [
            [
              37.8383361,
              48.7576668
            ],
            [
              37.8250056,
              48.7565451
            ],
            [
              37.8185829,
              48.762317
            ],
            [
              37.835017,
              48.7794625
            ],
            [
              37.8420493,
              48.7835308
            ],
            [
              37.8478847,
              48.7754503
            ],
            [
              37.8365561,
              48.7783275
            ],
            [
              37.835532,
              48.7774829
            ],
            [
              37.8420581,
              48.7699899
            ],
            [
              37.8518439,
              48.7666825
            ],
            [
              37.8510419,
              48.7607937
            ],
            [
              37.8389682,
              48.764865
            ],
            [
              37.8320727,
              48.7655426
            ],
            [
              37.8332599,
              48.7626565
            ],
            [
              37.8368502,
              48.7622598
            ],
            [
              37.8444301,
              48.7544414
            ],
            [
              37.8347017,
              48.7520603
            ],
            [
              37.8383361,
              48.7576668
            ]
          ]
        ]
      }
    },
    {
      "type": "Feature",
      "properties": {
        "change_type": "russian_gain",
        "label": "Russian territorial gain",
        "area_km2": 0.28,
        "previous_file": "deepstatemap_data_20260913.geojson",
        "current_file": "deepstatemap_data_20260914.geojson",
        "previous_date": "2026-09-13",
        "current_date": "2026-09-14",
        "day_number": 8,
        "day_index_from_latest": 22
      },
      "geometry": {
        "type": "Polygon",
        "coordinates": [
          [
            [
              37.6153731,
              48.4882284
            ],
            [
              37.6118098,
              48.4923675
            ],
            [
              37.6135678,
              48.494402
            ],
            [
              37.620349,
              48.4975604
            ],
            [
              37.6151128,
              48.4935488
            ],
            [
              37.622156,
              48.4856385
            ],
            [
              37.6153731,
              48.4882284
            ]
          ]
        ]
      }
    },
    {
      "type": "Feature",
      "properties": {
        "change_type": "russian_gain",
        "label": "Russian territorial gain",
        "area_km2": 1.0,
        "previous_file": "deepstatemap_data_20260913.geojson",
        "current_file": "deepstatemap_data_20260914.geojson",
        "previous_date": "2026-09-13",
        "current_date": "2026-09-14",
        "day_number": 8,
        "day_index_from_latest": 22
      },
      "geometry": {
        "type": "Polygon",
        "coordinates": [
          [
            [
              37.8033654,
              48.5646357
            ],
            [
              37.8033531,
              48.5722772
            ],
            [
              37.8158294,
              48.575496
            ],
            [
              37.8193662,
              48.5717259
            ],
            [
              37.8139103,
              48.5669385
            ],
            [
              37.8129784,
              48.5646357
            ],
            [
              37.7956517,
              48.5642361
            ],
            [
              37.8033654,
              48.5646357
            ]
          ]
        ]
      }
    },
    {
      "type": "Feature",
      "properties": {
        "change_type": "russian_gain",
        "label": "Russian territorial gain",
        "area_km2": 4.28,
        "previous_file": "deepstatemap_data_20260914.geojson",
        "current_file": "deepstatemap_data_20260915.geojson",
        "previous_date": "2026-09-14",
        "current_date": "2026-09-15",
        "day_number": 9,
        "day_index_from_latest": 21
      },
      "geometry": {
        "type": "Polygon",
        "coordinates": [
          [
            [
              37.2243349,
              48.4042253
            ],
            [
              37.2227354,
              48.406775
            ],
            [
              37.202683,
              48.4079027
            ],
            [
              37.1961915,
              48.4067513
            ],
            [
              37.1893882,
              48.4099749
            ],
            [
              37.1893227,
              48.4158884
            ],
            [
              37.2012641,
              48.4147722
            ],
            [
              37.2231631,
              48.4194642
            ],
            [
              37.219023,
              48.4298485
            ],
            [
              37.2251372,
              48.4161602
            ],
            [
              37.2326469,
              48.4167544
            ],
            [
              37.2374761,
              48.4150694
            ],
            [
              37.234612,
              48.4111503
            ],
            [
              37.2397299,
              48.4111621
            ],
            [
              37.2405569,
              48.4038264
            ],
            [
              37.2131928,
              48.4014898
            ],
            [
              37.2243349,
              48.4042253
            ]
          ]
        ]
      }
    },
    {
      "type": "Feature",
      "properties": {
        "change_type": "russian_gain",
        "label": "Russian territorial gain",
        "area_km2": 3.0,
        "previous_file": "deepstatemap_data_20260914.geojson",
        "current_file": "deepstatemap_data_20260915.geojson",
        "previous_date": "2026-09-14",
        "current_date": "2026-09-15",
        "day_number": 9,
        "day_index_from_latest": 21
      },
      "geometry": {
        "type": "Polygon",
        "coordinates": [
          [
            [
              37.2496422,
              48.4557022
            ],
            [
              37.2466742,
              48.4597869
            ],
            [
              37.2744441,
              48.4683888
            ],
            [
              37.2812055,
              48.4730304
            ],
            [
              37.2988671,
              48.4760212
            ],
            [
              37.3078376,
              48.4747168
            ],
            [
              37.2957772,
              48.4698756
            ],
            [
              37.2853254,
              48.4684779
            ],
            [
              37.2771907,
              48.4640636
            ],
            [
              37.2693335,
              48.4570548
            ],
            [
              37.2395648,
              48.4543476
            ],
            [
              37.2496422,
              48.4557022
            ]
          ]
        ]
      }
    },
    {
      "type": "Feature",
      "properties": {
        "change_type": "russian_gain",
        "label": "Russian territorial gain",
        "area_km2": 4.21,
        "previous_file": "deepstatemap_data_20260914.geojson",
        "current_file": "deepstatemap_data_20260915.geojson",
        "previous_date": "2026-09-14",
        "current_date": "2026-09-15",
        "day_number": 9,
        "day_index_from_latest": 21
      },
      "geometry": {
        "type": "Polygon",
        "coordinates": [
          [
            [
              37.9178484,
              48.8100946
            ],
            [
              37.9071624,
              48.8330371
            ],
            [
              37.9166468,
              48.8398176
            ],
            [
              37.9279436,
              48.8390275
            ],
            [
              37.9325465,
              48.8193642
            ],
            [
              37.9299373,
              48.8173194
            ],
            [
              37.9289129,
              48.8115355
            ],
            [
              37.9178484,
              48.8100946
            ]
          ]
        ]
      }
    },
    {
      "type": "Feature",
      "properties": {
        "change_type": "russian_gain",
        "label": "Russian territorial gain",
        "area_km2": 0.03,
        "previous_file": "deepstatemap_data_20260914.geojson",
        "current_file": "deepstatemap_data_20260915.geojson",
        "previous_date": "2026-09-14",
        "current_date": "2026-09-15",
        "day_number": 9,
        "day_index_from_latest": 21
      },
      "geometry": {
        "type": "Polygon",
        "coordinates": [
          [
            [
              37.713493890918755,
              49.107561839112925
            ],
            [
              37.715115,
              49.1071085
            ],
            [
              37.714108,
              49.102253
            ],
            [
              37.713493890918755,
              49.107561839112925
            ]
          ]
        ]
      }
    },
    {
      "type": "Feature",
      "properties": {
        "change_type": "ukrainian_recapture",
        "label": "Ukrainian recapture",
        "area_km2": 2.83,
        "previous_file": "deepstatemap_data_20260914.geojson",
        "current_file": "deepstatemap_data_20260915.geojson",
        "previous_date": "2026-09-14",
        "current_date": "2026-09-15",
        "day_number": 9,
        "day_index_from_latest": 21
      },
      "geometry": {
        "type": "Polygon",
        "coordinates": [
          [
            [
              37.706926,
              49.089239
            ],
            [
              37.6839874,
              49.0942648
            ],
            [
              37.6818175,
              49.0970408
            ],
            [
              37.6955048,
              49.0996444
            ],
            [
              37.7103,
              49.101567
            ],
            [
              37.714108,
              49.102253
            ],
            [
              37.72225,
              49.0933252
            ],
            [
              37.72156712920838,
              49.08838874872583
            ],
            [
              37.706926,
              49.089239
            ]
          ]
        ]
      }
    },
    {
      "type": "Feature",
      "properties": {
        "change_type": "ukrainian_recapture",
        "label": "Ukrainian recapture",
        "area_km2": 6.92,
        "previous_file": "deepstatemap_data_20260914.geojson",
        "current_file": "deepstatemap_data_20260915.geojson",
        "previous_date": "2026-09-14",
        "current_date": "2026-09-15",
        "day_number": 9,
        "day_index_from_latest": 21
      },
      "geometry": {
        "type": "Polygon",
        "coordinates": [
          [
            [
              37.703824,
              49.110266
            ],
            [
              37.6964577,
              49.1050632
            ],
            [
              37.6784489,
              49.1053093
            ],
            [
              37.6789513,
              49.1176016
            ],
            [
              37.6886444,
              49.1282404
            ],
            [
              37.7003972,
              49.1302842
            ],
            [
              37.7095327,
              49.1268678
            ],
            [
              37.7240818,
              49.1332643
            ],
            [
              37.7472985,
              49.1297186
            ],
            [
              37.7323215,
              49.1294453
            ],
            [
              37.7208624,
              49.1278788
            ],
            [
              37.7173917,
              49.1201739
            ],
            [
              37.7128834,
              49.1128394
            ],
            [
              37.713493890918755,
              49.107561839112925
            ],
            [
              37.703824,
              49.110266
            ]
          ]
        ]
      }
    },
    {
      "type": "Feature",
      "properties": {
        "change_type": "russian_gain",
        "label": "Russian territorial gain",
        "area_km2": 4.03,
        "previous_file": "deepstatemap_data_20260917.geojson",
        "current_file": "deepstatemap_data_20260918.geojson",
        "previous_date": "2026-09-17",
        "current_date": "2026-09-18",
        "day_number": 12,
        "day_index_from_latest": 18
      },
      "geometry": {
        "type": "Polygon",
        "coordinates": [
          [
            [
              37.1743223,
              48.3910317
            ],
            [
              37.1936166,
              48.4024208
            ],
            [
              37.1893882,
              48.4099749
            ],
            [
              37.1961915,
              48.4067513
            ],
            [
              37.202683,
              48.4079027
            ],
            [
              37.2227354,
              48.406775
            ],
            [
              37.2243349,
              48.4042253
            ],
            [
              37.2131928,
              48.4014898
            ],
            [
              37.2046818,
              48.3976792
            ],
            [
              37.186729,
              48.3936409
            ],
            [
              37.185725,
              48.3803486
            ],
            [
              37.1780989,
              48.3790613
            ],
            [
              37.1703872,
              48.3790851
            ],
            [
              37.1743223,
              48.3910317
            ]
          ]
        ]
      }
    },
    {
      "type": "Feature",
      "properties": {
        "change_type": "russian_gain",
        "label": "Russian territorial gain",
        "area_km2": 2.54,
        "previous_file": "deepstatemap_data_20260918.geojson",
        "current_file": "deepstatemap_data_20260919.geojson",
        "previous_date": "2026-09-18",
        "current_date": "2026-09-19",
        "day_number": 13,
        "day_index_from_latest": 17
      },
      "geometry": {
        "type": "Polygon",
        "coordinates": [
          [
            [
              37.0314666,
              48.2592968
            ],
            [
              37.029864,
              48.2676838
            ],
            [
              37.0450712,
              48.2688007
            ],
            [
              37.0460326,
              48.2711736
            ],
            [
              37.05640243612567,
              48.27015408509624
            ],
            [
              37.05763,
              48.263759
            ],
            [
              37.0503241,
              48.2616321
            ],
            [
              37.0511652,
              48.2551443
            ],
            [
              37.045571,
              48.2537985
            ],
            [
              37.0335265,
              48.2587825
            ],
            [
              37.012517,
              48.2599323
            ],
            [
              37.0314666,
              48.2592968
            ]
          ]
        ]
      }
    },
    {
      "type": "Feature",
      "properties": {
        "change_type": "russian_gain",
        "label": "Russian territorial gain",
        "area_km2": 2.4,
        "previous_file": "deepstatemap_data_20260918.geojson",
        "current_file": "deepstatemap_data_20260919.geojson",
        "previous_date": "2026-09-18",
        "current_date": "2026-09-19",
        "day_number": 13,
        "day_index_from_latest": 17
      },
      "geometry": {
        "type": "Polygon",
        "coordinates": [
          [
            [
              37.1372106,
              50.3318347
            ],
            [
              37.1302519,
              50.3344368
            ],
            [
              37.125352,
              50.3412013
            ],
            [
              37.1347781,
              50.3474996
            ],
            [
              37.1383816,
              50.3609458
            ],
            [
              37.1433612,
              50.3458564
            ],
            [
              37.145107,
              50.3353411
            ],
            [
              37.1576516,
              50.3350682
            ],
            [
              37.1372106,
              50.3318347
            ]
          ]
        ]
      }
    },
    {
      "type": "Feature",
      "properties": {
        "change_type": "ukrainian_recapture",
        "label": "Ukrainian recapture",
        "area_km2": 0.02,
        "previous_file": "deepstatemap_data_20260918.geojson",
        "current_file": "deepstatemap_data_20260919.geojson",
        "previous_date": "2026-09-18",
        "current_date": "2026-09-19",
        "day_number": 13,
        "day_index_from_latest": 17
      },
      "geometry": {
        "type": "Polygon",
        "coordinates": [
          [
            [
              37.0543796,
              48.2806922
            ],
            [
              37.0569434,
              48.2701009
            ],
            [
              37.05640243612567,
              48.27015408509624
            ],
            [
              37.0543796,
              48.2806922
            ]
          ]
        ]
      }
    },
    {
      "type": "Feature",
      "properties": {
        "change_type": "russian_gain",
        "label": "Russian territorial gain",
        "area_km2": 0.25,
        "previous_file": "deepstatemap_data_20260919.geojson",
        "current_file": "deepstatemap_data_20260920.geojson",
        "previous_date": "2026-09-19",
        "current_date": "2026-09-20",
        "day_number": 14,
        "day_index_from_latest": 16
      },
      "geometry": {
        "type": "Polygon",
        "coordinates": [
          [
            [
              37.7943997,
              49.0685878
            ],
            [
              37.7918368602721,
              49.070794831916054
            ],
            [
              37.8203985,
              49.0698701
            ],
            [
              37.7943997,
              49.0685878
            ]
          ]
        ]
      }
    },
    {
      "type": "Feature",
      "properties": {
        "change_type": "ukrainian_recapture",
        "label": "Ukrainian recapture",
        "area_km2": 26.09,
        "previous_file": "deepstatemap_data_20260919.geojson",
        "current_file": "deepstatemap_data_20260920.geojson",
        "previous_date": "2026-09-19",
        "current_date": "2026-09-20",
        "day_number": 14,
        "day_index_from_latest": 16
      },
      "geometry": {
        "type": "Polygon",
        "coordinates": [
          [
            [
              37.783585,
              49.071062
            ],
            [
              37.747419,
              49.0631634
            ],
            [
              37.7220394,
              49.0648366
            ],
            [
              37.7130459,
              49.0691004
            ],
            [
              37.720738,
              49.082395
            ],
            [
              37.72225,
              49.0933252
            ],
            [
              37.714108,
              49.102253
            ],
            [
              37.7128834,
              49.1128394
            ],
            [
              37.7173917,
              49.1201739
            ],
            [
              37.7208624,
              49.1278788
            ],
            [
              37.7323215,
              49.1294453
            ],
            [
              37.7472985,
              49.1297186
            ],
            [
              37.7309482,
              49.1194472
            ],
            [
              37.7288239,
              49.1084948
            ],
            [
              37.7366552,
              49.1038342
            ],
            [
              37.7416999,
              49.1079595
            ],
            [
              37.7529256,
              49.1111852
            ],
            [
              37.7734799,
              49.1077827
            ],
            [
              37.7900682,
              49.099387
            ],
            [
              37.7727184,
              49.0923135
            ],
            [
              37.7748113,
              49.091164
            ],
            [
              37.7825688,
              49.0909136
            ],
            [
              37.7884724,
              49.0841782
            ],
            [
              37.7839829,
              49.0775584
            ],
            [
              37.7918368602721,
              49.070794831916054
            ],
            [
              37.783585,
              49.071062
            ]
          ]
        ]
      }
    },
    {
      "type": "Feature",
      "properties": {
        "change_type": "russian_gain",
        "label": "Russian territorial gain",
        "area_km2": 5.84,
        "previous_file": "deepstatemap_data_20260922.geojson",
        "current_file": "deepstatemap_data_20260923.geojson",
        "previous_date": "2026-09-22",
        "current_date": "2026-09-23",
        "day_number": 17,
        "day_index_from_latest": 13
      },
      "geometry": {
        "type": "Polygon",
        "coordinates": [
          [
            [
              37.7817485,
              48.6278971
            ],
            [
              37.7786929,
              48.6443225
            ],
            [
              37.7704773,
              48.6527574
            ],
            [
              37.759733,
              48.6543277
            ],
            [
              37.7548328,
              48.6560765
            ],
            [
              37.7517348,
              48.6608867
            ],
            [
              37.7539354,
              48.6644796
            ],
            [
              37.7818184,
              48.6733697
            ],
            [
              37.7844911,
              48.656656
            ],
            [
              37.7907092,
              48.6459671
            ],
            [
              37.7846667,
              48.633513
            ],
            [
              37.7880016,
              48.623531
            ],
            [
              37.7817485,
              48.6278971
            ]
          ]
        ]
      }
    },
    {
      "type": "Feature",
      "properties": {
        "change_type": "ukrainian_recapture",
        "label": "Ukrainian recapture",
        "area_km2": 5.42,
        "previous_file": "deepstatemap_data_20260922.geojson",
        "current_file": "deepstatemap_data_20260923.geojson",
        "previous_date": "2026-09-22",
        "current_date": "2026-09-23",
        "day_number": 17,
        "day_index_from_latest": 13
      },
      "geometry": {
        "type": "Polygon",
        "coordinates": [
          [
            [
              37.611246,
              49.78401
            ],
            [
              37.612197,
              49.79171
            ],
            [
              37.605703,
              49.795738
            ],
            [
              37.6117691,
              49.8017652
            ],
            [
              37.6185876,
              49.8045517
            ],
            [
              37.6246324,
              49.8144819
            ],
            [
              37.6170516,
              49.8166483
            ],
            [
              37.6196529,
              49.8232406
            ],
            [
              37.6342395,
              49.8241062
            ],
            [
              37.638534,
              49.8179828
            ],
            [
              37.6605075,
              49.8092152
            ],
            [
              37.6434263,
              49.8152691
            ],
            [
              37.6369861,
              49.8098734
            ],
            [
              37.6313259,
              49.8018063
            ],
            [
              37.6284671,
              49.8081743
            ],
            [
              37.6246324,
              49.8069492
            ],
            [
              37.6267415,
              49.8006185
            ],
            [
              37.6150307,
              49.8028178
            ],
            [
              37.6155735,
              49.7995608
            ],
            [
              37.6293631,
              49.7897152
            ],
            [
              37.6271247,
              49.783345
            ],
            [
              37.6232738,
              49.7767237
            ],
            [
              37.611246,
              49.78401
            ]
          ]
        ]
      }
    },
    {
      "type": "Feature",
      "properties": {
        "change_type": "russian_gain",
        "label": "Russian territorial gain",
        "area_km2": 4.08,
        "previous_file": "deepstatemap_data_20260924.geojson",
        "current_file": "deepstatemap_data_20260925.geojson",
        "previous_date": "2026-09-24",
        "current_date": "2026-09-25",
        "day_number": 19,
        "day_index_from_latest": 11
      },
      "geometry": {
        "type": "Polygon",
        "coordinates": [
          [
            [
              37.0479194,
              48.3572501
            ],
            [
              37.0699233,
              48.3615609
            ],
            [
              37.084772,
              48.3625774
            ],
            [
              37.0858878,
              48.3577969
            ],
            [
              37.0791303,
              48.3562093
            ],
            [
              37.0706879,
              48.3517936
            ],
            [
              37.0684248,
              48.3513707
            ],
            [
              37.067504,
              48.3427664
            ],
            [
              37.0628539,
              48.3400232
            ],
            [
              37.0408354,
              48.3492325
            ],
            [
              37.0479194,
              48.3572501
            ]
          ]
        ]
      }
    },
    {
      "type": "Feature",
      "properties": {
        "change_type": "russian_gain",
        "label": "Russian territorial gain",
        "area_km2": 1.79,
        "previous_file": "deepstatemap_data_20260924.geojson",
        "current_file": "deepstatemap_data_20260925.geojson",
        "previous_date": "2026-09-24",
        "current_date": "2026-09-25",
        "day_number": 19,
        "day_index_from_latest": 11
      },
      "geometry": {
        "type": "Polygon",
        "coordinates": [
          [
            [
              37.8122509,
              48.7696167
            ],
            [
              37.8260048,
              48.7822338
            ],
            [
              37.8420493,
              48.7835308
            ],
            [
              37.835017,
              48.7794625
            ],
            [
              37.8185829,
              48.762317
            ],
            [
              37.8122509,
              48.7696167
            ]
          ]
        ]
      }
    },
    {
      "type": "Feature",
      "properties": {
        "change_type": "russian_gain",
        "label": "Russian territorial gain",
        "area_km2": 6.11,
        "previous_file": "deepstatemap_data_20260926.geojson",
        "current_file": "deepstatemap_data_20260927.geojson",
        "previous_date": "2026-09-26",
        "current_date": "2026-09-27",
        "day_number": 21,
        "day_index_from_latest": 9
      },
      "geometry": {
        "type": "Polygon",
        "coordinates": [
          [
            [
              37.9092396,
              48.8000653
            ],
            [
              37.9015007,
              48.8053358
            ],
            [
              37.9032572,
              48.8121294
            ],
            [
              37.8972919,
              48.8157456
            ],
            [
              37.896995,
              48.8191096
            ],
            [
              37.8903458,
              48.8267685
            ],
            [
              37.9071624,
              48.8330371
            ],
            [
              37.9178484,
              48.8100946
            ],
            [
              37.9289129,
              48.8115355
            ],
            [
              37.9356132,
              48.8018499
            ],
            [
              37.9404438,
              48.7984199
            ],
            [
              37.9373779,
              48.7960075
            ],
            [
              37.9294098,
              48.7979169
            ],
            [
              37.9204119,
              48.7950764
            ],
            [
              37.9092396,
              48.8000653
            ]
          ]
        ]
      }
    },
    {
      "type": "Feature",
      "properties": {
        "change_type": "russian_gain",
        "label": "Russian territorial gain",
        "area_km2": 3.47,
        "previous_file": "deepstatemap_data_20260927.geojson",
        "current_file": "deepstatemap_data_20260928.geojson",
        "previous_date": "2026-09-27",
        "current_date": "2026-09-28",
        "day_number": 22,
        "day_index_from_latest": 8
      },
      "geometry": {
        "type": "Polygon",
        "coordinates": [
          [
            [
              37.1290698,
              48.3742659
            ],
            [
              37.1353773,
              48.3757581
            ],
            [
              37.1472414,
              48.3722211
            ],
            [
              37.152067,
              48.3775782
            ],
            [
              37.1573648,
              48.3814954
            ],
            [
              37.1678981,
              48.3862107
            ],
            [
              37.1743223,
              48.3910317
            ],
            [
              37.1703872,
              48.3790851
            ],
            [
              37.1646604,
              48.3699789
            ],
            [
              37.1567877,
              48.3661749
            ],
            [
              37.1514471,
              48.3686289
            ],
            [
              37.1323732,
              48.3679468
            ],
            [
              37.1165817,
              48.3797284
            ],
            [
              37.1290698,
              48.3742659
            ]
          ]
        ]
      }
    },
    {
      "type": "Feature",
      "properties": {
        "change_type": "russian_gain",
        "label": "Russian territorial gain",
        "area_km2": 7.21,
        "previous_file": "deepstatemap_data_20260927.geojson",
        "current_file": "deepstatemap_data_20260928.geojson",
        "previous_date": "2026-09-27",
        "current_date": "2026-09-28",
        "day_number": 22,
        "day_index_from_latest": 8
      },
      "geometry": {
        "type": "Polygon",
        "coordinates": [
          [
            [
              37.8933943,
              48.7845583
            ],
            [
              37.889942,
              48.7949633
            ],
            [
              37.8793705,
              48.7968427
            ],
            [
              37.8813305,
              48.803018
            ],
            [
              37.8903826,
              48.8079466
            ],
            [
              37.8924854,
              48.8158586
            ],
            [
              37.896995,
              48.8191096
            ],
            [
              37.8972919,
              48.8157456
            ],
            [
              37.9032572,
              48.8121294
            ],
            [
              37.9015007,
              48.8053358
            ],
            [
              37.9092396,
              48.8000653
            ],
            [
              37.9204119,
              48.7950764
            ],
            [
              37.9226689,
              48.7852681
            ],
            [
              37.9134506,
              48.7834323
            ],
            [
              37.9004187,
              48.7740565
            ],
            [
              37.8910919,
              48.7782862
            ],
            [
              37.8933943,
              48.7845583
            ]
          ]
        ]
      }
    },
    {
      "type": "Feature",
      "properties": {
        "change_type": "russian_gain",
        "label": "Russian territorial gain",
        "area_km2": 1.43,
        "previous_file": "deepstatemap_data_20260927.geojson",
        "current_file": "deepstatemap_data_20260928.geojson",
        "previous_date": "2026-09-27",
        "current_date": "2026-09-28",
        "day_number": 22,
        "day_index_from_latest": 8
      },
      "geometry": {
        "type": "Polygon",
        "coordinates": [
          [
            [
              37.9318376,
              49.2430453
            ],
            [
              37.9526579,
              49.2499294
            ],
            [
              37.9670076,
              49.2438865
            ],
            [
              37.9559195,
              49.2482486
            ],
            [
              37.9500259,
              49.2479101
            ],
            [
              37.9500332,
              49.2466768
            ],
            [
              37.953817,
              49.2454436
            ],
            [
              37.9502621,
              49.2441543
            ],
            [
              37.9491714,
              49.2417166
            ],
            [
              37.9564918,
              49.2402874
            ],
            [
              37.9510069,
              49.2363778
            ],
            [
              37.935564,
              49.239305
            ],
            [
              37.92943986385594,
              49.2417956190883
            ],
            [
              37.9318376,
              49.2430453
            ]
          ]
        ]
      }
    },
    {
      "type": "Feature",
      "properties": {
        "change_type": "ukrainian_recapture",
        "label": "Ukrainian recapture",
        "area_km2": 42.93,
        "previous_file": "deepstatemap_data_20260927.geojson",
        "current_file": "deepstatemap_data_20260928.geojson",
        "previous_date": "2026-09-27",
        "current_date": "2026-09-28",
        "day_number": 22,
        "day_index_from_latest": 8
      },
      "geometry": {
        "type": "Polygon",
        "coordinates": [
          [
            [
              37.764481,
              49.163179
            ],
            [
              37.7638464,
              49.1668115
            ],
            [
              37.7500095,
              49.174491
            ],
            [
              37.749046,
              49.178692
            ],
            [
              37.755336,
              49.181574
            ],
            [
              37.759911,
              49.185634
            ],
            [
              37.776544,
              49.182906
            ],
            [
              37.780561,
              49.185225
            ],
            [
              37.783937,
              49.188134
            ],
            [
              37.79455,
              49.185673
            ],
            [
              37.794786,
              49.183885
            ],
            [
              37.805966,
              49.180848
            ],
            [
              37.814419,
              49.185799
            ],
            [
              37.839223,
              49.186051
            ],
            [
              37.842278,
              49.1906
            ],
            [
              37.8839,
              49.192806
            ],
            [
              37.892682,
              49.200398
            ],
            [
              37.88074,
              49.208092
            ],
            [
              37.883474,
              49.213581
            ],
            [
              37.884149,
              49.220472
            ],
            [
              37.878299,
              49.221606
            ],
            [
              37.876396,
              49.226102
            ],
            [
              37.887527,
              49.226464
            ],
            [
              37.895111,
              49.226009
            ],
            [
              37.898306,
              49.224458
            ],
            [
              37.91873,
              49.226813
            ],
            [
              37.915586,
              49.242748
            ],
            [
              37.919478,
              49.245847
            ],
            [
              37.92943986385594,
              49.2417956190883
            ],
            [
              37.9233108,
              49.2386012
            ],
            [
              37.928858,
              49.2264767
            ],
            [
              37.9494611,
              49.2097692
            ],
            [
              37.9069916,
              49.1910365
            ],
            [
              37.8784341,
              49.1876094
            ],
            [
              37.8777202,
              49.1727211
            ],
            [
              37.8542943,
              49.1692796
            ],
            [
              37.8507244,
              49.1563094
            ],
            [
              37.8465197,
              49.1485348
            ],
            [
              37.8433233,
              49.1482471
            ],
            [
              37.8408133,
              49.1523383
            ],
            [
              37.816587,
              49.1570611
            ],
            [
              37.7854519,
              49.1582887
            ],
            [
              37.7810188,
              49.1603021
            ],
            [
              37.7615628,
              49.1601481
            ],
            [
              37.74892,
              49.14743
            ],
            [
              37.764481,
              49.163179
            ]
          ]
        ]
      }
    },
    {
      "type": "Feature",
      "properties": {
        "change_type": "russian_gain",
        "label": "Russian territorial gain",
        "area_km2": 1.48,
        "previous_file": "deepstatemap_data_20260929.geojson",
        "current_file": "deepstatemap_data_20260930.geojson",
        "previous_date": "2026-09-29",
        "current_date": "2026-09-30",
        "day_number": 24,
        "day_index_from_latest": 6
      },
      "geometry": {
        "type": "Polygon",
        "coordinates": [
          [
            [
              37.0443145,
              48.3565087
            ],
            [
              37.0420468,
              48.3610516
            ],
            [
              37.0500113,
              48.3686834
            ],
            [
              37.0699233,
              48.3615609
            ],
            [
              37.0479194,
              48.3572501
            ],
            [
              37.0408354,
              48.3492325
            ],
            [
              37.0443145,
              48.3565087
            ]
          ]
        ]
      }
    },
    {
      "type": "Feature",
      "properties": {
        "change_type": "russian_gain",
        "label": "Russian territorial gain",
        "area_km2": 1.14,
        "previous_file": "deepstatemap_data_20260929.geojson",
        "current_file": "deepstatemap_data_20260930.geojson",
        "previous_date": "2026-09-29",
        "current_date": "2026-09-30",
        "day_number": 24,
        "day_index_from_latest": 6
      },
      "geometry": {
        "type": "Polygon",
        "coordinates": [
          [
            [
              37.0938701,
              48.3654287
            ],
            [
              37.0932236,
              48.3716677
            ],
            [
              37.1076481,
              48.3790331
            ],
            [
              37.1028366,
              48.3652814
            ],
            [
              37.084772,
              48.3625774
            ],
            [
              37.0699233,
              48.3615609
            ],
            [
              37.0938701,
              48.3654287
            ]
          ]
        ]
      }
    },
    {
      "type": "Feature",
      "properties": {
        "change_type": "russian_gain",
        "label": "Russian territorial gain",
        "area_km2": 0.77,
        "previous_file": "deepstatemap_data_20260929.geojson",
        "current_file": "deepstatemap_data_20260930.geojson",
        "previous_date": "2026-09-29",
        "current_date": "2026-09-30",
        "day_number": 24,
        "day_index_from_latest": 6
      },
      "geometry": {
        "type": "Polygon",
        "coordinates": [
          [
            [
              37.1045618,
              48.3874184
            ],
            [
              37.1115163,
              48.3883046
            ],
            [
              37.1186416,
              48.3806975
            ],
            [
              37.1290698,
              48.3742659
            ],
            [
              37.1165817,
              48.3797284
            ],
            [
              37.1076481,
              48.3790331
            ],
            [
              37.1045618,
              48.3874184
            ]
          ]
        ]
      }
    },
    {
      "type": "Feature",
      "properties": {
        "change_type": "ukrainian_recapture",
        "label": "Ukrainian recapture",
        "area_km2": 0.58,
        "previous_file": "deepstatemap_data_20260929.geojson",
        "current_file": "deepstatemap_data_20260930.geojson",
        "previous_date": "2026-09-29",
        "current_date": "2026-09-30",
        "day_number": 24,
        "day_index_from_latest": 6
      },
      "geometry": {
        "type": "Polygon",
        "coordinates": [
          [
            [
              37.6155735,
              49.7995608
            ],
            [
              37.61548580977689,
              49.800086973649
            ],
            [
              37.621704,
              49.797654
            ],
            [
              37.6293824,
              49.7969774
            ],
            [
              37.6361161,
              49.7946936
            ],
            [
              37.6293631,
              49.7897152
            ],
            [
              37.6155735,
              49.7995608
            ]
          ]
        ]
      }
    },
    {
      "type": "Feature",
      "properties": {
        "change_type": "russian_gain",
        "label": "Russian territorial gain",
        "area_km2": 7.74,
        "previous_file": "deepstatemap_data_20260930.geojson",
        "current_file": "deepstatemap_data_20261001.geojson",
        "previous_date": "2026-09-30",
        "current_date": "2026-10-01",
        "day_number": 25,
        "day_index_from_latest": 5
      },
      "geometry": {
        "type": "Polygon",
        "coordinates": [
          [
            [
              37.1002216,
              48.3902851
            ],
            [
              37.0974293,
              48.3963501
            ],
            [
              37.1000092,
              48.3977855
            ],
            [
              37.1057634,
              48.3949418
            ],
            [
              37.1125248,
              48.3880624
            ],
            [
              37.1240058,
              48.3831023
            ],
            [
              37.1353773,
              48.3757581
            ],
            [
              37.1290698,
              48.3742659
            ],
            [
              37.1186416,
              48.3806975
            ],
            [
              37.1115163,
              48.3883046
            ],
            [
              37.1045618,
              48.3874184
            ],
            [
              37.1076481,
              48.3790331
            ],
            [
              37.0932236,
              48.3716677
            ],
            [
              37.0938701,
              48.3654287
            ],
            [
              37.0699233,
              48.3615609
            ],
            [
              37.0500113,
              48.3686834
            ],
            [
              37.1002216,
              48.3902851
            ]
          ]
        ]
      }
    },
    {
      "type": "Feature",
      "properties": {
        "change_type": "russian_gain",
        "label": "Russian territorial gain",
        "area_km2": 0.88,
        "previous_file": "deepstatemap_data_20260930.geojson",
        "current_file": "deepstatemap_data_20261001.geojson",
        "previous_date": "2026-09-30",
        "current_date": "2026-10-01",
        "day_number": 25,
        "day_index_from_latest": 5
      },
      "geometry": {
        "type": "Polygon",
        "coordinates": [
          [
            [
              37.1721237,
              48.4008297
            ],
            [
              37.1936166,
              48.4024208
            ],
            [
              37.1743223,
              48.3910317
            ],
            [
              37.1721237,
              48.4008297
            ]
          ]
        ]
      }
    },
    {
      "type": "Feature",
      "properties": {
        "change_type": "russian_gain",
        "label": "Russian territorial gain",
        "area_km2": 8.03,
        "previous_file": "deepstatemap_data_20261002.geojson",
        "current_file": "deepstatemap_data_20261003.geojson",
        "previous_date": "2026-10-02",
        "current_date": "2026-10-03",
        "day_number": 27,
        "day_index_from_latest": 3
      },
      "geometry": {
        "type": "Polygon",
        "coordinates": [
          [
            [
              36.1487762,
              47.6612712
            ],
            [
              36.1460615,
              47.6686292
            ],
            [
              36.1392896,
              47.6900118
            ],
            [
              36.1422564,
              47.7020304
            ],
            [
              36.1670987,
              47.6923228
            ],
            [
              36.1724427,
              47.6804475
            ],
            [
              36.1660688,
              47.6746137
            ],
            [
              36.1602569,
              47.6688564
            ],
            [
              36.1706091,
              47.654871
            ],
            [
              36.164569,
              47.6516742
            ],
            [
              36.1593756,
              47.6530362
            ],
            [
              36.1487762,
              47.6612712
            ]
          ]
        ]
      }
    },
    {
      "type": "Feature",
      "properties": {
        "change_type": "russian_gain",
        "label": "Russian territorial gain",
        "area_km2": 5.9,
        "previous_file": "deepstatemap_data_20261003.geojson",
        "current_file": "deepstatemap_data_20261004.geojson",
        "previous_date": "2026-10-03",
        "current_date": "2026-10-04",
        "day_number": 28,
        "day_index_from_latest": 2
      },
      "geometry": {
        "type": "Polygon",
        "coordinates": [
          [
            [
              36.9908998,
              48.2686514
            ],
            [
              36.9990398,
              48.2690758
            ],
            [
              37.012002,
              48.2678744
            ],
            [
              37.0102664,
              48.2790643
            ],
            [
              37.0272032,
              48.2745965
            ],
            [
              37.0440688,
              48.2801549
            ],
            [
              37.0543796,
              48.2806922
            ],
            [
              37.0569434,
              48.2701009
            ],
            [
              37.0460326,
              48.2711736
            ],
            [
              37.0450712,
              48.2688007
            ],
            [
              37.029864,
              48.2676838
            ],
            [
              37.0314666,
              48.2592968
            ],
            [
              37.012517,
              48.2599323
            ],
            [
              37.0104538,
              48.2597782
            ],
            [
              37.0088197,
              48.2610535
            ],
            [
              37.0030738,
              48.2609053
            ],
            [
              36.9954488,
              48.263395
            ],
            [
              36.9883384,
              48.262913
            ],
            [
              36.9908998,
              48.2686514
            ]
          ]
        ]
      }
    },
    {
      "type": "Feature",
      "properties": {
        "change_type": "russian_gain",
        "label": "Russian territorial gain",
        "area_km2": 2.11,
        "previous_file": "deepstatemap_data_20261003.geojson",
        "current_file": "deepstatemap_data_20261004.geojson",
        "previous_date": "2026-10-03",
        "current_date": "2026-10-04",
        "day_number": 28,
        "day_index_from_latest": 2
      },
      "geometry": {
        "type": "Polygon",
        "coordinates": [
          [
            [
              37.2160938,
              48.4325342
            ],
            [
              37.2166847,
              48.4445012
            ],
            [
              37.2241701,
              48.4474485
            ],
            [
              37.2300219,
              48.4485642
            ],
            [
              37.2339858,
              48.4532091
            ],
            [
              37.23960250150524,
              48.45410349453021
            ],
            [
              37.2404932,
              48.4483365
            ],
            [
              37.2372164,
              48.4484163
            ],
            [
              37.2308468,
              48.4394337
            ],
            [
              37.219023,
              48.4298485
            ],
            [
              37.2160938,
              48.4325342
            ]
          ]
        ]
      }
    },
    {
      "type": "Feature",
      "properties": {
        "change_type": "russian_gain",
        "label": "Russian territorial gain",
        "area_km2": 2.23,
        "previous_file": "deepstatemap_data_20261004.geojson",
        "current_file": "deepstatemap_data_20261005.geojson",
        "previous_date": "2026-10-04",
        "current_date": "2026-10-05",
        "day_number": 29,
        "day_index_from_latest": 1
      },
      "geometry": {
        "type": "Polygon",
        "coordinates": [
          [
            [
              36.1336476,
              47.7195436
            ],
            [
              36.1301243,
              47.7209805
            ],
            [
              36.1343708,
              47.7239509
            ],
            [
              36.1297996,
              47.7249741
            ],
            [
              36.1317514,
              47.7273824
            ],
            [
              36.1494675,
              47.7280326
            ],
            [
              36.1589451,
              47.7317982
            ],
            [
              36.1634598,
              47.7459418
            ],
            [
              36.1643524,
              47.7263136
            ],
            [
              36.1477159,
              47.7235718
            ],
            [
              36.1352016,
              47.7136672
            ],
            [
              36.1336476,
              47.7195436
            ]
          ]
        ]
      }
    }
  ]
}