{
  "type": "FeatureCollection",
  "metadata": {
    "updated_utc": "2026-10-10T21:55:47.771703+00:00",
    "previous_file": "deepstatemap_data_20261009.geojson",
    "current_file": "deepstatemap_data_20261010.geojson",
    "russian_gain_km2": 9.1,
    "ukrainian_recapture_km2": 0,
    "net_change_km2": 9.1,
    "method": "Shapely geometric difference between the latest two DeepState GeoJSON files. Area is approximate."
  },
  "features": [
    {
      "type": "Feature",
      "properties": {
        "change_type": "russian_gain",
        "label": "Russian territorial gain",
        "area_km2": 9.1
      },
      "geometry": {
        "type": "Polygon",
        "coordinates": [
          [
            [
              37.5372014,
              50.2120155
            ],
            [
              37.5385014,
              50.2024831
            ],
            [
              37.5243532,
              50.196576
            ],
            [
              37.5118528,
              50.1952
            ],
            [
              37.5064208,
              50.1996993
            ],
            [
              37.5085997,
              50.2104541
            ],
            [
              37.516733,
              50.2146042
            ],
            [
              37.5223564,
              50.229053
            ],
            [
              37.5277193,
              50.2207553
            ],
            [
              37.5457845,
              50.2267337
            ],
            [
              37.5692796,
              50.229815
            ],
            [
              37.5988438,
              50.2213721
            ],
            [
              37.6148445,
              50.2223728
            ],
            [
              37.5978997,
              50.2193401
            ],
            [
              37.5471449,
              50.2210269
            ],
            [
              37.5372014,
              50.2120155
            ]
          ]
        ]
      }
    }
  ]
}