{
  "type": "FeatureCollection",
  "metadata": {
    "updated_utc": "2026-09-03T09:59:32.033021+00:00",
    "rolling_days": 30,
    "oldest_file": "deepstatemap_data_20260804.geojson",
    "latest_file": "deepstatemap_data_20260903.geojson",
    "oldest_date": "2026-08-04",
    "latest_date": "2026-09-03",
    "feature_count": 47,
    "russian_gain_km2": 149.85,
    "ukrainian_recapture_km2": 127.25,
    "net_change_km2": 22.6,
    "source": "DeepState public GeoJSON files",
    "method": "Rolling Shapely geometric difference between consecutive DeepState GeoJSON files for the latest 30 daily intervals. Area is approximate.",
    "usage": {
      "dashboard_filter_5_days": "day_index_from_latest <= 4",
      "dashboard_filter_10_days": "day_index_from_latest <= 9",
      "dashboard_filter_15_days": "day_index_from_latest <= 14",
      "dashboard_filter_30_days": "day_index_from_latest <= 29"
    },
    "daily_summaries": [
      {
        "previous_date": "2026-08-04",
        "current_date": "2026-08-05",
        "previous_file": "deepstatemap_data_20260804.geojson",
        "current_file": "deepstatemap_data_20260805.geojson",
        "russian_gain_km2": 8.37,
        "ukrainian_recapture_km2": 0,
        "net_change_km2": 8.37,
        "day_index_from_latest": 29
      },
      {
        "previous_date": "2026-08-05",
        "current_date": "2026-08-06",
        "previous_file": "deepstatemap_data_20260805.geojson",
        "current_file": "deepstatemap_data_20260806.geojson",
        "russian_gain_km2": 5.53,
        "ukrainian_recapture_km2": 0,
        "net_change_km2": 5.53,
        "day_index_from_latest": 28
      },
      {
        "previous_date": "2026-08-06",
        "current_date": "2026-08-07",
        "previous_file": "deepstatemap_data_20260806.geojson",
        "current_file": "deepstatemap_data_20260807.geojson",
        "russian_gain_km2": 0,
        "ukrainian_recapture_km2": 0,
        "net_change_km2": 0,
        "day_index_from_latest": 27
      },
      {
        "previous_date": "2026-08-07",
        "current_date": "2026-08-08",
        "previous_file": "deepstatemap_data_20260807.geojson",
        "current_file": "deepstatemap_data_20260808.geojson",
        "russian_gain_km2": 3.08,
        "ukrainian_recapture_km2": 0,
        "net_change_km2": 3.08,
        "day_index_from_latest": 26
      },
      {
        "previous_date": "2026-08-08",
        "current_date": "2026-08-09",
        "previous_file": "deepstatemap_data_20260808.geojson",
        "current_file": "deepstatemap_data_20260809.geojson",
        "russian_gain_km2": 6.33,
        "ukrainian_recapture_km2": 0,
        "net_change_km2": 6.33,
        "day_index_from_latest": 25
      },
      {
        "previous_date": "2026-08-09",
        "current_date": "2026-08-10",
        "previous_file": "deepstatemap_data_20260809.geojson",
        "current_file": "deepstatemap_data_20260810.geojson",
        "russian_gain_km2": 2.35,
        "ukrainian_recapture_km2": 0,
        "net_change_km2": 2.35,
        "day_index_from_latest": 24
      },
      {
        "previous_date": "2026-08-10",
        "current_date": "2026-08-11",
        "previous_file": "deepstatemap_data_20260810.geojson",
        "current_file": "deepstatemap_data_20260811.geojson",
        "russian_gain_km2": 4.54,
        "ukrainian_recapture_km2": 0,
        "net_change_km2": 4.54,
        "day_index_from_latest": 23
      },
      {
        "previous_date": "2026-08-11",
        "current_date": "2026-08-12",
        "previous_file": "deepstatemap_data_20260811.geojson",
        "current_file": "deepstatemap_data_20260812.geojson",
        "russian_gain_km2": 5.12,
        "ukrainian_recapture_km2": 0,
        "net_change_km2": 5.12,
        "day_index_from_latest": 22
      },
      {
        "previous_date": "2026-08-12",
        "current_date": "2026-08-13",
        "previous_file": "deepstatemap_data_20260812.geojson",
        "current_file": "deepstatemap_data_20260813.geojson",
        "russian_gain_km2": 3.93,
        "ukrainian_recapture_km2": 118.41,
        "net_change_km2": -114.48,
        "day_index_from_latest": 21
      },
      {
        "previous_date": "2026-08-13",
        "current_date": "2026-08-14",
        "previous_file": "deepstatemap_data_20260813.geojson",
        "current_file": "deepstatemap_data_20260814.geojson",
        "russian_gain_km2": 2.41,
        "ukrainian_recapture_km2": 0,
        "net_change_km2": 2.41,
        "day_index_from_latest": 20
      },
      {
        "previous_date": "2026-08-14",
        "current_date": "2026-08-15",
        "previous_file": "deepstatemap_data_20260814.geojson",
        "current_file": "deepstatemap_data_20260815.geojson",
        "russian_gain_km2": 4.04,
        "ukrainian_recapture_km2": 0,
        "net_change_km2": 4.04,
        "day_index_from_latest": 19
      },
      {
        "previous_date": "2026-08-15",
        "current_date": "2026-08-16",
        "previous_file": "deepstatemap_data_20260815.geojson",
        "current_file": "deepstatemap_data_20260816.geojson",
        "russian_gain_km2": 5.33,
        "ukrainian_recapture_km2": 0,
        "net_change_km2": 5.33,
        "day_index_from_latest": 18
      },
      {
        "previous_date": "2026-08-16",
        "current_date": "2026-08-17",
        "previous_file": "deepstatemap_data_20260816.geojson",
        "current_file": "deepstatemap_data_20260817.geojson",
        "russian_gain_km2": 0,
        "ukrainian_recapture_km2": 0,
        "net_change_km2": 0,
        "day_index_from_latest": 17
      },
      {
        "previous_date": "2026-08-17",
        "current_date": "2026-08-18",
        "previous_file": "deepstatemap_data_20260817.geojson",
        "current_file": "deepstatemap_data_20260818.geojson",
        "russian_gain_km2": 7.53,
        "ukrainian_recapture_km2": 0,
        "net_change_km2": 7.53,
        "day_index_from_latest": 16
      },
      {
        "previous_date": "2026-08-18",
        "current_date": "2026-08-19",
        "previous_file": "deepstatemap_data_20260818.geojson",
        "current_file": "deepstatemap_data_20260819.geojson",
        "russian_gain_km2": 6.41,
        "ukrainian_recapture_km2": 0,
        "net_change_km2": 6.41,
        "day_index_from_latest": 15
      },
      {
        "previous_date": "2026-08-19",
        "current_date": "2026-08-20",
        "previous_file": "deepstatemap_data_20260819.geojson",
        "current_file": "deepstatemap_data_20260820.geojson",
        "russian_gain_km2": 12.48,
        "ukrainian_recapture_km2": 0,
        "net_change_km2": 12.48,
        "day_index_from_latest": 14
      },
      {
        "previous_date": "2026-08-20",
        "current_date": "2026-08-21",
        "previous_file": "deepstatemap_data_20260820.geojson",
        "current_file": "deepstatemap_data_20260821.geojson",
        "russian_gain_km2": 1.2,
        "ukrainian_recapture_km2": 0,
        "net_change_km2": 1.2,
        "day_index_from_latest": 13
      },
      {
        "previous_date": "2026-08-21",
        "current_date": "2026-08-22",
        "previous_file": "deepstatemap_data_20260821.geojson",
        "current_file": "deepstatemap_data_20260822.geojson",
        "russian_gain_km2": 5.58,
        "ukrainian_recapture_km2": 0,
        "net_change_km2": 5.58,
        "day_index_from_latest": 12
      },
      {
        "previous_date": "2026-08-22",
        "current_date": "2026-08-23",
        "previous_file": "deepstatemap_data_20260822.geojson",
        "current_file": "deepstatemap_data_20260823.geojson",
        "russian_gain_km2": 4.85,
        "ukrainian_recapture_km2": 0,
        "net_change_km2": 4.85,
        "day_index_from_latest": 11
      },
      {
        "previous_date": "2026-08-23",
        "current_date": "2026-08-24",
        "previous_file": "deepstatemap_data_20260823.geojson",
        "current_file": "deepstatemap_data_20260824.geojson",
        "russian_gain_km2": 6.86,
        "ukrainian_recapture_km2": 0,
        "net_change_km2": 6.86,
        "day_index_from_latest": 10
      },
      {
        "previous_date": "2026-08-24",
        "current_date": "2026-08-25",
        "previous_file": "deepstatemap_data_20260824.geojson",
        "current_file": "deepstatemap_data_20260825.geojson",
        "russian_gain_km2": 0,
        "ukrainian_recapture_km2": 0,
        "net_change_km2": 0,
        "day_index_from_latest": 9
      },
      {
        "previous_date": "2026-08-25",
        "current_date": "2026-08-26",
        "previous_file": "deepstatemap_data_20260825.geojson",
        "current_file": "deepstatemap_data_20260826.geojson",
        "russian_gain_km2": 6.41,
        "ukrainian_recapture_km2": 6.45,
        "net_change_km2": -0.04,
        "day_index_from_latest": 8
      },
      {
        "previous_date": "2026-08-26",
        "current_date": "2026-08-27",
        "previous_file": "deepstatemap_data_20260826.geojson",
        "current_file": "deepstatemap_data_20260827.geojson",
        "russian_gain_km2": 3.48,
        "ukrainian_recapture_km2": 0,
        "net_change_km2": 3.48,
        "day_index_from_latest": 7
      },
      {
        "previous_date": "2026-08-27",
        "current_date": "2026-08-28",
        "previous_file": "deepstatemap_data_20260827.geojson",
        "current_file": "deepstatemap_data_20260828.geojson",
        "russian_gain_km2": 4.92,
        "ukrainian_recapture_km2": 0,
        "net_change_km2": 4.92,
        "day_index_from_latest": 6
      },
      {
        "previous_date": "2026-08-28",
        "current_date": "2026-08-29",
        "previous_file": "deepstatemap_data_20260828.geojson",
        "current_file": "deepstatemap_data_20260829.geojson",
        "russian_gain_km2": 0,
        "ukrainian_recapture_km2": 0,
        "net_change_km2": 0,
        "day_index_from_latest": 5
      },
      {
        "previous_date": "2026-08-29",
        "current_date": "2026-08-30",
        "previous_file": "deepstatemap_data_20260829.geojson",
        "current_file": "deepstatemap_data_20260830.geojson",
        "russian_gain_km2": 14.18,
        "ukrainian_recapture_km2": 0,
        "net_change_km2": 14.18,
        "day_index_from_latest": 4
      },
      {
        "previous_date": "2026-08-30",
        "current_date": "2026-08-31",
        "previous_file": "deepstatemap_data_20260830.geojson",
        "current_file": "deepstatemap_data_20260831.geojson",
        "russian_gain_km2": 0,
        "ukrainian_recapture_km2": 2.39,
        "net_change_km2": -2.39,
        "day_index_from_latest": 3
      },
      {
        "previous_date": "2026-08-31",
        "current_date": "2026-09-01",
        "previous_file": "deepstatemap_data_20260831.geojson",
        "current_file": "deepstatemap_data_20260901.geojson",
        "russian_gain_km2": 3.27,
        "ukrainian_recapture_km2": 0,
        "net_change_km2": 3.27,
        "day_index_from_latest": 2
      },
      {
        "previous_date": "2026-09-01",
        "current_date": "2026-09-02",
        "previous_file": "deepstatemap_data_20260901.geojson",
        "current_file": "deepstatemap_data_20260902.geojson",
        "russian_gain_km2": 21.65,
        "ukrainian_recapture_km2": 0,
        "net_change_km2": 21.65,
        "day_index_from_latest": 1
      },
      {
        "previous_date": "2026-09-02",
        "current_date": "2026-09-03",
        "previous_file": "deepstatemap_data_20260902.geojson",
        "current_file": "deepstatemap_data_20260903.geojson",
        "russian_gain_km2": 0,
        "ukrainian_recapture_km2": 0,
        "net_change_km2": 0,
        "day_index_from_latest": 0
      }
    ]
  },
  "features": [
    {
      "type": "Feature",
      "properties": {
        "change_type": "russian_gain",
        "label": "Russian territorial gain",
        "area_km2": 5.11,
        "previous_file": "deepstatemap_data_20260804.geojson",
        "current_file": "deepstatemap_data_20260805.geojson",
        "previous_date": "2026-08-04",
        "current_date": "2026-08-05",
        "day_number": 1,
        "day_index_from_latest": 29
      },
      "geometry": {
        "type": "Polygon",
        "coordinates": [
          [
            [
              37.3183827,
              48.4739269
            ],
            [
              37.3393465,
              48.4737259
            ],
            [
              37.3648609,
              48.4778166
            ],
            [
              37.3674132,
              48.4824313
            ],
            [
              37.3652901,
              48.4729231
            ],
            [
              37.3600317,
              48.4719619
            ],
            [
              37.3514275,
              48.4639111
            ],
            [
              37.3390921,
              48.4597018
            ],
            [
              37.3253956,
              48.4589055
            ],
            [
              37.3184403,
              48.4647047
            ],
            [
              37.3021728,
              48.4647581
            ],
            [
              37.3183827,
              48.4739269
            ]
          ]
        ]
      }
    },
    {
      "type": "Feature",
      "properties": {
        "change_type": "russian_gain",
        "label": "Russian territorial gain",
        "area_km2": 3.26,
        "previous_file": "deepstatemap_data_20260804.geojson",
        "current_file": "deepstatemap_data_20260805.geojson",
        "previous_date": "2026-08-04",
        "current_date": "2026-08-05",
        "day_number": 1,
        "day_index_from_latest": 29
      },
      "geometry": {
        "type": "Polygon",
        "coordinates": [
          [
            [
              37.5700114,
              50.2368298
            ],
            [
              37.585999,
              50.2391294
            ],
            [
              37.5943873,
              50.2338652
            ],
            [
              37.5866174,
              50.2303641
            ],
            [
              37.5988438,
              50.2213721
            ],
            [
              37.5692796,
              50.229815
            ],
            [
              37.5445829,
              50.2340911
            ],
            [
              37.538752,
              50.2358741
            ],
            [
              37.5397873,
              50.2378767
            ],
            [
              37.5700114,
              50.2368298
            ]
          ]
        ]
      }
    },
    {
      "type": "Feature",
      "properties": {
        "change_type": "russian_gain",
        "label": "Russian territorial gain",
        "area_km2": 5.53,
        "previous_file": "deepstatemap_data_20260805.geojson",
        "current_file": "deepstatemap_data_20260806.geojson",
        "previous_date": "2026-08-05",
        "current_date": "2026-08-06",
        "day_number": 2,
        "day_index_from_latest": 28
      },
      "geometry": {
        "type": "Polygon",
        "coordinates": [
          [
            [
              37.2427032,
              48.4268169
            ],
            [
              37.2420709,
              48.4337626
            ],
            [
              37.244422,
              48.4339207
            ],
            [
              37.2439668,
              48.4375872
            ],
            [
              37.2465719,
              48.4382247
            ],
            [
              37.2500204,
              48.442643
            ],
            [
              37.2488345,
              48.4534368
            ],
            [
              37.2693335,
              48.4570548
            ],
            [
              37.2771907,
              48.4640636
            ],
            [
              37.2853254,
              48.4684779
            ],
            [
              37.2957772,
              48.4698756
            ],
            [
              37.3078376,
              48.4747168
            ],
            [
              37.3183827,
              48.4739269
            ],
            [
              37.3021728,
              48.4647581
            ],
            [
              37.28728,
              48.4603713
            ],
            [
              37.2745692,
              48.4520455
            ],
            [
              37.2589625,
              48.4428476
            ],
            [
              37.2436159,
              48.4293205
            ],
            [
              37.2481964,
              48.4258487
            ],
            [
              37.2357878,
              48.4262062
            ],
            [
              37.2427032,
              48.4268169
            ]
          ]
        ]
      }
    },
    {
      "type": "Feature",
      "properties": {
        "change_type": "russian_gain",
        "label": "Russian territorial gain",
        "area_km2": 3.08,
        "previous_file": "deepstatemap_data_20260807.geojson",
        "current_file": "deepstatemap_data_20260808.geojson",
        "previous_date": "2026-08-07",
        "current_date": "2026-08-08",
        "day_number": 4,
        "day_index_from_latest": 26
      },
      "geometry": {
        "type": "Polygon",
        "coordinates": [
          [
            [
              37.7264872,
              48.4794533
            ],
            [
              37.7426792,
              48.4812065
            ],
            [
              37.7485194,
              48.4779388
            ],
            [
              37.7619519,
              48.4831088
            ],
            [
              37.7704062,
              48.4695172
            ],
            [
              37.754953,
              48.4726716
            ],
            [
              37.7455845,
              48.4740194
            ],
            [
              37.7218038,
              48.4719987
            ],
            [
              37.7161531,
              48.4844196
            ],
            [
              37.7264872,
              48.4794533
            ]
          ]
        ]
      }
    },
    {
      "type": "Feature",
      "properties": {
        "change_type": "russian_gain",
        "label": "Russian territorial gain",
        "area_km2": 6.33,
        "previous_file": "deepstatemap_data_20260808.geojson",
        "current_file": "deepstatemap_data_20260809.geojson",
        "previous_date": "2026-08-08",
        "current_date": "2026-08-09",
        "day_number": 5,
        "day_index_from_latest": 25
      },
      "geometry": {
        "type": "Polygon",
        "coordinates": [
          [
            [
              37.9490251,
              48.8098441
            ],
            [
              37.9423561,
              48.811045
            ],
            [
              37.9402481,
              48.8132684
            ],
            [
              37.9316595,
              48.812779
            ],
            [
              37.9299373,
              48.8173194
            ],
            [
              37.9325465,
              48.8193642
            ],
            [
              37.9279436,
              48.8390275
            ],
            [
              37.9166468,
              48.8398176
            ],
            [
              37.9301752,
              48.8403833
            ],
            [
              37.9409579,
              48.8438852
            ],
            [
              37.9525966,
              48.8428017
            ],
            [
              37.9553543,
              48.826549
            ],
            [
              37.9551826,
              48.8218588
            ],
            [
              37.9503602,
              48.8134014
            ],
            [
              37.9555482,
              48.8097311
            ],
            [
              37.9535218,
              48.8002309
            ],
            [
              37.9490251,
              48.8098441
            ]
          ]
        ]
      }
    },
    {
      "type": "Feature",
      "properties": {
        "change_type": "russian_gain",
        "label": "Russian territorial gain",
        "area_km2": 1.25,
        "previous_file": "deepstatemap_data_20260809.geojson",
        "current_file": "deepstatemap_data_20260810.geojson",
        "previous_date": "2026-08-09",
        "current_date": "2026-08-10",
        "day_number": 6,
        "day_index_from_latest": 24
      },
      "geometry": {
        "type": "Polygon",
        "coordinates": [
          [
            [
              37.6505614,
              48.4757154
            ],
            [
              37.6481573,
              48.4897439
            ],
            [
              37.6367639,
              48.4942315
            ],
            [
              37.6376762,
              48.4959066
            ],
            [
              37.6471715,
              48.4938273
            ],
            [
              37.6594888,
              48.4951865
            ],
            [
              37.6616769,
              48.4897887
            ],
            [
              37.6531355,
              48.4891182
            ],
            [
              37.6528788,
              48.4757154
            ],
            [
              37.6472135,
              48.4703363
            ],
            [
              37.6505614,
              48.4757154
            ]
          ]
        ]
      }
    },
    {
      "type": "Feature",
      "properties": {
        "change_type": "russian_gain",
        "label": "Russian territorial gain",
        "area_km2": 1.1,
        "previous_file": "deepstatemap_data_20260809.geojson",
        "current_file": "deepstatemap_data_20260810.geojson",
        "previous_date": "2026-08-09",
        "current_date": "2026-08-10",
        "day_number": 6,
        "day_index_from_latest": 24
      },
      "geometry": {
        "type": "Polygon",
        "coordinates": [
          [
            [
              37.8223703,
              48.5648535
            ],
            [
              37.830366,
              48.5715371
            ],
            [
              37.8286761,
              48.5771796
            ],
            [
              37.82467,
              48.581572
            ],
            [
              37.832281,
              48.580757
            ],
            [
              37.8344,
              48.578295
            ],
            [
              37.837734,
              48.578143
            ],
            [
              37.8363967,
              48.5754542
            ],
            [
              37.8330671,
              48.5726621
            ],
            [
              37.8342009,
              48.5683928
            ],
            [
              37.8361572,
              48.5663592
            ],
            [
              37.8288448,
              48.561656
            ],
            [
              37.8223703,
              48.5648535
            ]
          ]
        ]
      }
    },
    {
      "type": "Feature",
      "properties": {
        "change_type": "russian_gain",
        "label": "Russian territorial gain",
        "area_km2": 4.54,
        "previous_file": "deepstatemap_data_20260810.geojson",
        "current_file": "deepstatemap_data_20260811.geojson",
        "previous_date": "2026-08-10",
        "current_date": "2026-08-11",
        "day_number": 7,
        "day_index_from_latest": 23
      },
      "geometry": {
        "type": "Polygon",
        "coordinates": [
          [
            [
              37.1867809,
              48.373669
            ],
            [
              37.1911922,
              48.381215
            ],
            [
              37.2103466,
              48.3919801
            ],
            [
              37.2155961,
              48.3914597
            ],
            [
              37.2276823,
              48.3976721
            ],
            [
              37.2360921,
              48.3980667
            ],
            [
              37.2297264,
              48.3872422
            ],
            [
              37.2281896,
              48.3817131
            ],
            [
              37.2165243,
              48.3805159
            ],
            [
              37.2159394,
              48.3757267
            ],
            [
              37.2028793,
              48.3777866
            ],
            [
              37.2000328,
              48.3719791
            ],
            [
              37.1921024,
              48.3742391
            ],
            [
              37.1894655,
              48.3718605
            ],
            [
              37.1867809,
              48.373669
            ]
          ]
        ]
      }
    },
    {
      "type": "Feature",
      "properties": {
        "change_type": "russian_gain",
        "label": "Russian territorial gain",
        "area_km2": 5.12,
        "previous_file": "deepstatemap_data_20260811.geojson",
        "current_file": "deepstatemap_data_20260812.geojson",
        "previous_date": "2026-08-11",
        "current_date": "2026-08-12",
        "day_number": 8,
        "day_index_from_latest": 22
      },
      "geometry": {
        "type": "Polygon",
        "coordinates": [
          [
            [
              37.7517409,
              49.654404
            ],
            [
              37.7285764,
              49.6514436
            ],
            [
              37.7242947,
              49.6541467
            ],
            [
              37.7306644,
              49.6574422
            ],
            [
              37.7398549,
              49.6683544
            ],
            [
              37.7674143,
              49.6671528
            ],
            [
              37.7778114,
              49.6731791
            ],
            [
              37.7727358,
              49.6577081
            ],
            [
              37.7699749,
              49.6572755
            ],
            [
              37.7701087,
              49.6542929
            ],
            [
              37.7784403,
              49.6513703
            ],
            [
              37.7517409,
              49.654404
            ]
          ]
        ]
      }
    },
    {
      "type": "Feature",
      "properties": {
        "change_type": "russian_gain",
        "label": "Russian territorial gain",
        "area_km2": 1.19,
        "previous_file": "deepstatemap_data_20260812.geojson",
        "current_file": "deepstatemap_data_20260813.geojson",
        "previous_date": "2026-08-12",
        "current_date": "2026-08-13",
        "day_number": 9,
        "day_index_from_latest": 21
      },
      "geometry": {
        "type": "Polygon",
        "coordinates": [
          [
            [
              36.6093881,
              47.9247941
            ],
            [
              36.6057084,
              47.9303877
            ],
            [
              36.6079429,
              47.9374246
            ],
            [
              36.62709909897508,
              47.93871737961903
            ],
            [
              36.626654,
              47.9369646
            ],
            [
              36.6103433,
              47.9264769
            ],
            [
              36.60951409797427,
              47.92478321755901
            ],
            [
              36.6093881,
              47.9247941
            ]
          ]
        ]
      }
    },
    {
      "type": "Feature",
      "properties": {
        "change_type": "russian_gain",
        "label": "Russian territorial gain",
        "area_km2": 2.74,
        "previous_file": "deepstatemap_data_20260812.geojson",
        "current_file": "deepstatemap_data_20260813.geojson",
        "previous_date": "2026-08-12",
        "current_date": "2026-08-13",
        "day_number": 9,
        "day_index_from_latest": 21
      },
      "geometry": {
        "type": "Polygon",
        "coordinates": [
          [
            [
              37.8453713,
              48.7360327
            ],
            [
              37.8515115,
              48.737187
            ],
            [
              37.8510632,
              48.7424338
            ],
            [
              37.8614679,
              48.7395644
            ],
            [
              37.876957,
              48.7408441
            ],
            [
              37.8809997,
              48.7330919
            ],
            [
              37.8789578,
              48.729889
            ],
            [
              37.870225,
              48.726057
            ],
            [
              37.8478764,
              48.7343687
            ],
            [
              37.8453713,
              48.7360327
            ]
          ]
        ]
      }
    },
    {
      "type": "Feature",
      "properties": {
        "change_type": "ukrainian_recapture",
        "label": "Ukrainian recapture",
        "area_km2": 30.41,
        "previous_file": "deepstatemap_data_20260812.geojson",
        "current_file": "deepstatemap_data_20260813.geojson",
        "previous_date": "2026-08-12",
        "current_date": "2026-08-13",
        "day_number": 9,
        "day_index_from_latest": 21
      },
      "geometry": {
        "type": "Polygon",
        "coordinates": [
          [
            [
              36.3088025,
              47.8206876
            ],
            [
              36.3225617,
              47.8273624
            ],
            [
              36.3459712,
              47.8304978
            ],
            [
              36.406937,
              47.8300996
            ],
            [
              36.4551076,
              47.8245888
            ],
            [
              36.4517406,
              47.8072767
            ],
            [
              36.4256221,
              47.8097503
            ],
            [
              36.3809902,
              47.7951069
            ],
            [
              36.3681581,
              47.7959081
            ],
            [
              36.348113,
              47.8057013
            ],
            [
              36.3029098,
              47.8029842
            ],
            [
              36.3088025,
              47.8206876
            ]
          ]
        ]
      }
    },
    {
      "type": "Feature",
      "properties": {
        "change_type": "ukrainian_recapture",
        "label": "Ukrainian recapture",
        "area_km2": 12.48,
        "previous_file": "deepstatemap_data_20260812.geojson",
        "current_file": "deepstatemap_data_20260813.geojson",
        "previous_date": "2026-08-12",
        "current_date": "2026-08-13",
        "day_number": 9,
        "day_index_from_latest": 21
      },
      "geometry": {
        "type": "Polygon",
        "coordinates": [
          [
            [
              36.4928655,
              47.848131
            ],
            [
              36.5398998,
              47.8515073
            ],
            [
              36.5725294,
              47.861645
            ],
            [
              36.5794467,
              47.8738505
            ],
            [
              36.5740216,
              47.8965362
            ],
            [
              36.5890094,
              47.8739661
            ],
            [
              36.5823649,
              47.8601465
            ],
            [
              36.5721861,
              47.8490898
            ],
            [
              36.5256519,
              47.8411388
            ],
            [
              36.4909772,
              47.8303869
            ],
            [
              36.4551076,
              47.8245888
            ],
            [
              36.4928655,
              47.848131
            ]
          ]
        ]
      }
    },
    {
      "type": "Feature",
      "properties": {
        "change_type": "ukrainian_recapture",
        "label": "Ukrainian recapture",
        "area_km2": 0.54,
        "previous_file": "deepstatemap_data_20260812.geojson",
        "current_file": "deepstatemap_data_20260813.geojson",
        "previous_date": "2026-08-12",
        "current_date": "2026-08-13",
        "day_number": 9,
        "day_index_from_latest": 21
      },
      "geometry": {
        "type": "Polygon",
        "coordinates": [
          [
            [
              36.6293006,
              47.9210586
            ],
            [
              36.6367544,
              47.9125702
            ],
            [
              36.6289303,
              47.9037367
            ],
            [
              36.6293006,
              47.9210586
            ]
          ]
        ]
      }
    },
    {
      "type": "Feature",
      "properties": {
        "change_type": "ukrainian_recapture",
        "label": "Ukrainian recapture",
        "area_km2": 0.23,
        "previous_file": "deepstatemap_data_20260812.geojson",
        "current_file": "deepstatemap_data_20260813.geojson",
        "previous_date": "2026-08-12",
        "current_date": "2026-08-13",
        "day_number": 9,
        "day_index_from_latest": 21
      },
      "geometry": {
        "type": "Polygon",
        "coordinates": [
          [
            [
              36.6087873,
              47.9232987
            ],
            [
              36.60951409797427,
              47.92478321755901
            ],
            [
              36.6210183,
              47.9237896
            ],
            [
              36.6293006,
              47.9210586
            ],
            [
              36.6087873,
              47.9232987
            ]
          ]
        ]
      }
    },
    {
      "type": "Feature",
      "properties": {
        "change_type": "ukrainian_recapture",
        "label": "Ukrainian recapture",
        "area_km2": 74.75,
        "previous_file": "deepstatemap_data_20260812.geojson",
        "current_file": "deepstatemap_data_20260813.geojson",
        "previous_date": "2026-08-12",
        "current_date": "2026-08-13",
        "day_number": 9,
        "day_index_from_latest": 21
      },
      "geometry": {
        "type": "Polygon",
        "coordinates": [
          [
            [
              36.630145,
              47.950712
            ],
            [
              36.62885,
              47.957946
            ],
            [
              36.6471236,
              47.9604942
            ],
            [
              36.646786,
              47.964472
            ],
            [
              36.643816,
              47.970748
            ],
            [
              36.638286,
              47.971599
            ],
            [
              36.63507,
              47.980337
            ],
            [
              36.6623135,
              48.0008002
            ],
            [
              36.6652849,
              48.0065672
            ],
            [
              36.6721151,
              48.0125089
            ],
            [
              36.6839741,
              48.0192811
            ],
            [
              36.6988631,
              48.0261797
            ],
            [
              36.7043335,
              48.037781
            ],
            [
              36.7066244,
              48.0535143
            ],
            [
              36.7221499,
              48.0540071
            ],
            [
              36.7360429,
              48.0643453
            ],
            [
              36.7472956,
              48.0780964
            ],
            [
              36.7690225,
              48.0753965
            ],
            [
              36.8058453,
              48.0595327
            ],
            [
              36.7761892,
              48.0667787
            ],
            [
              36.764731,
              48.0549766
            ],
            [
              36.7636035,
              48.0339218
            ],
            [
              36.7485742,
              48.0267032
            ],
            [
              36.7355395,
              48.0092377
            ],
            [
              36.7424423,
              47.9746135
            ],
            [
              36.7321654,
              47.960699
            ],
            [
              36.6609715,
              47.9436736
            ],
            [
              36.6361531,
              47.9393284
            ],
            [
              36.62709909897508,
              47.93871737961903
            ],
            [
              36.630145,
              47.950712
            ]
          ]
        ]
      }
    },
    {
      "type": "Feature",
      "properties": {
        "change_type": "russian_gain",
        "label": "Russian territorial gain",
        "area_km2": 2.41,
        "previous_file": "deepstatemap_data_20260813.geojson",
        "current_file": "deepstatemap_data_20260814.geojson",
        "previous_date": "2026-08-13",
        "current_date": "2026-08-14",
        "day_number": 10,
        "day_index_from_latest": 20
      },
      "geometry": {
        "type": "Polygon",
        "coordinates": [
          [
            [
              37.7907092,
              48.6459671
            ],
            [
              37.7872377,
              48.6564292
            ],
            [
              37.800272,
              48.6638468
            ],
            [
              37.8117061,
              48.6655169
            ],
            [
              37.816494,
              48.6629965
            ],
            [
              37.7979665,
              48.6576765
            ],
            [
              37.8006656,
              48.6438688
            ],
            [
              37.7846667,
              48.633513
            ],
            [
              37.7907092,
              48.6459671
            ]
          ]
        ]
      }
    },
    {
      "type": "Feature",
      "properties": {
        "change_type": "russian_gain",
        "label": "Russian territorial gain",
        "area_km2": 4.04,
        "previous_file": "deepstatemap_data_20260814.geojson",
        "current_file": "deepstatemap_data_20260815.geojson",
        "previous_date": "2026-08-14",
        "current_date": "2026-08-15",
        "day_number": 11,
        "day_index_from_latest": 19
      },
      "geometry": {
        "type": "Polygon",
        "coordinates": [
          [
            [
              37.186729,
              48.3936409
            ],
            [
              37.2046818,
              48.3976792
            ],
            [
              37.2131928,
              48.4014898
            ],
            [
              37.2405569,
              48.4038264
            ],
            [
              37.2397299,
              48.4111621
            ],
            [
              37.2423003,
              48.3990448
            ],
            [
              37.2360921,
              48.3980667
            ],
            [
              37.2276823,
              48.3976721
            ],
            [
              37.2155961,
              48.3914597
            ],
            [
              37.2103466,
              48.3919801
            ],
            [
              37.1911922,
              48.381215
            ],
            [
              37.1867809,
              48.373669
            ],
            [
              37.186729,
              48.3936409
            ]
          ]
        ]
      }
    },
    {
      "type": "Feature",
      "properties": {
        "change_type": "russian_gain",
        "label": "Russian territorial gain",
        "area_km2": 1.74,
        "previous_file": "deepstatemap_data_20260815.geojson",
        "current_file": "deepstatemap_data_20260816.geojson",
        "previous_date": "2026-08-15",
        "current_date": "2026-08-16",
        "day_number": 12,
        "day_index_from_latest": 18
      },
      "geometry": {
        "type": "Polygon",
        "coordinates": [
          [
            [
              37.8948416,
              48.8626911
            ],
            [
              37.8920472,
              48.8648272
            ],
            [
              37.9024089,
              48.865726
            ],
            [
              37.9077942,
              48.8700678
            ],
            [
              37.8987082,
              48.8753699
            ],
            [
              37.9012092,
              48.8780189
            ],
            [
              37.9064603,
              48.8777434
            ],
            [
              37.9103734,
              48.8796941
            ],
            [
              37.9163466,
              48.8796124
            ],
            [
              37.9269365,
              48.8854383
            ],
            [
              37.9149421,
              48.875648
            ],
            [
              37.9165489,
              48.8719308
            ],
            [
              37.9101195,
              48.865966
            ],
            [
              37.9083825,
              48.8625545
            ],
            [
              37.8948416,
              48.8626911
            ]
          ]
        ]
      }
    },
    {
      "type": "Feature",
      "properties": {
        "change_type": "russian_gain",
        "label": "Russian territorial gain",
        "area_km2": 3.59,
        "previous_file": "deepstatemap_data_20260815.geojson",
        "current_file": "deepstatemap_data_20260816.geojson",
        "previous_date": "2026-08-15",
        "current_date": "2026-08-16",
        "day_number": 12,
        "day_index_from_latest": 18
      },
      "geometry": {
        "type": "Polygon",
        "coordinates": [
          [
            [
              37.725057,
              49.6421537
            ],
            [
              37.7083228,
              49.6420886
            ],
            [
              37.7079824,
              49.6487386
            ],
            [
              37.716739,
              49.6539988
            ],
            [
              37.7172566,
              49.6563693
            ],
            [
              37.7137469,
              49.6586836
            ],
            [
              37.7122966,
              49.6654426
            ],
            [
              37.7398549,
              49.6683544
            ],
            [
              37.7306644,
              49.6574422
            ],
            [
              37.7242947,
              49.6541467
            ],
            [
              37.7285764,
              49.6514436
            ],
            [
              37.725057,
              49.6421537
            ]
          ]
        ]
      }
    },
    {
      "type": "Feature",
      "properties": {
        "change_type": "russian_gain",
        "label": "Russian territorial gain",
        "area_km2": 5.43,
        "previous_file": "deepstatemap_data_20260817.geojson",
        "current_file": "deepstatemap_data_20260818.geojson",
        "previous_date": "2026-08-17",
        "current_date": "2026-08-18",
        "day_number": 14,
        "day_index_from_latest": 16
      },
      "geometry": {
        "type": "Polygon",
        "coordinates": [
          [
            [
              37.0791303,
              48.3562093
            ],
            [
              37.0858878,
              48.3577969
            ],
            [
              37.0955008,
              48.356304
            ],
            [
              37.1230068,
              48.3564989
            ],
            [
              37.1440565,
              48.3576801
            ],
            [
              37.146823,
              48.3530413
            ],
            [
              37.1567985,
              48.3480681
            ],
            [
              37.1433039,
              48.3529272
            ],
            [
              37.1236288,
              48.3488393
            ],
            [
              37.105154,
              48.3473726
            ],
            [
              37.1061438,
              48.3399326
            ],
            [
              37.0862311,
              48.3468455
            ],
            [
              37.0729505,
              48.3485661
            ],
            [
              37.0706879,
              48.3517936
            ],
            [
              37.0791303,
              48.3562093
            ]
          ]
        ]
      }
    },
    {
      "type": "Feature",
      "properties": {
        "change_type": "russian_gain",
        "label": "Russian territorial gain",
        "area_km2": 2.1,
        "previous_file": "deepstatemap_data_20260817.geojson",
        "current_file": "deepstatemap_data_20260818.geojson",
        "previous_date": "2026-08-17",
        "current_date": "2026-08-18",
        "day_number": 14,
        "day_index_from_latest": 16
      },
      "geometry": {
        "type": "Polygon",
        "coordinates": [
          [
            [
              37.2358431,
              48.4310494
            ],
            [
              37.2418665,
              48.4423014
            ],
            [
              37.2395648,
              48.4543476
            ],
            [
              37.2693335,
              48.4570548
            ],
            [
              37.2488345,
              48.4534368
            ],
            [
              37.2500204,
              48.442643
            ],
            [
              37.2465719,
              48.4382247
            ],
            [
              37.2439668,
              48.4375872
            ],
            [
              37.244422,
              48.4339207
            ],
            [
              37.2420709,
              48.4337626
            ],
            [
              37.2427032,
              48.4268169
            ],
            [
              37.2357878,
              48.4262062
            ],
            [
              37.2244953,
              48.4246838
            ],
            [
              37.2358431,
              48.4310494
            ]
          ]
        ]
      }
    },
    {
      "type": "Feature",
      "properties": {
        "change_type": "russian_gain",
        "label": "Russian territorial gain",
        "area_km2": 6.41,
        "previous_file": "deepstatemap_data_20260818.geojson",
        "current_file": "deepstatemap_data_20260819.geojson",
        "previous_date": "2026-08-18",
        "current_date": "2026-08-19",
        "day_number": 15,
        "day_index_from_latest": 15
      },
      "geometry": {
        "type": "Polygon",
        "coordinates": [
          [
            [
              36.1660688,
              47.6746137
            ],
            [
              36.1724427,
              47.6804475
            ],
            [
              36.1670987,
              47.6923228
            ],
            [
              36.1528994,
              47.7008751
            ],
            [
              36.1528827,
              47.7110106
            ],
            [
              36.1582209,
              47.7011062
            ],
            [
              36.1850134,
              47.6975529
            ],
            [
              36.191303,
              47.6957891
            ],
            [
              36.2009385,
              47.6847235
            ],
            [
              36.1978262,
              47.6779656
            ],
            [
              36.1719299,
              47.6694344
            ],
            [
              36.1660688,
              47.6746137
            ]
          ]
        ]
      }
    },
    {
      "type": "Feature",
      "properties": {
        "change_type": "russian_gain",
        "label": "Russian territorial gain",
        "area_km2": 5.54,
        "previous_file": "deepstatemap_data_20260819.geojson",
        "current_file": "deepstatemap_data_20260820.geojson",
        "previous_date": "2026-08-19",
        "current_date": "2026-08-20",
        "day_number": 16,
        "day_index_from_latest": 14
      },
      "geometry": {
        "type": "Polygon",
        "coordinates": [
          [
            [
              36.1422564,
              47.7020304
            ],
            [
              36.1352016,
              47.7136672
            ],
            [
              36.1477159,
              47.7235718
            ],
            [
              36.1643524,
              47.7263136
            ],
            [
              36.1900673,
              47.7198484
            ],
            [
              36.1756821,
              47.7143031
            ],
            [
              36.1528827,
              47.7110106
            ],
            [
              36.1528994,
              47.7008751
            ],
            [
              36.1670987,
              47.6923228
            ],
            [
              36.1422564,
              47.7020304
            ]
          ]
        ]
      }
    },
    {
      "type": "Feature",
      "properties": {
        "change_type": "russian_gain",
        "label": "Russian territorial gain",
        "area_km2": 6.94,
        "previous_file": "deepstatemap_data_20260819.geojson",
        "current_file": "deepstatemap_data_20260820.geojson",
        "previous_date": "2026-08-19",
        "current_date": "2026-08-20",
        "day_number": 16,
        "day_index_from_latest": 14
      },
      "geometry": {
        "type": "Polygon",
        "coordinates": [
          [
            [
              37.9227627,
              48.7813427
            ],
            [
              37.9248466,
              48.7884306
            ],
            [
              37.9204119,
              48.7950764
            ],
            [
              37.9294098,
              48.7979169
            ],
            [
              37.9373779,
              48.7960075
            ],
            [
              37.9404438,
              48.7984199
            ],
            [
              37.9356132,
              48.8018499
            ],
            [
              37.9289129,
              48.8115355
            ],
            [
              37.9299373,
              48.8173194
            ],
            [
              37.9316595,
              48.812779
            ],
            [
              37.9402481,
              48.8132684
            ],
            [
              37.9423561,
              48.811045
            ],
            [
              37.9490251,
              48.8098441
            ],
            [
              37.9535218,
              48.8002309
            ],
            [
              37.9567649,
              48.7974547
            ],
            [
              37.9510482,
              48.7813993
            ],
            [
              37.930222,
              48.7746351
            ],
            [
              37.9227627,
              48.7813427
            ]
          ]
        ]
      }
    },
    {
      "type": "Feature",
      "properties": {
        "change_type": "russian_gain",
        "label": "Russian territorial gain",
        "area_km2": 1.2,
        "previous_file": "deepstatemap_data_20260820.geojson",
        "current_file": "deepstatemap_data_20260821.geojson",
        "previous_date": "2026-08-20",
        "current_date": "2026-08-21",
        "day_number": 17,
        "day_index_from_latest": 13
      },
      "geometry": {
        "type": "Polygon",
        "coordinates": [
          [
            [
              37.8086549,
              48.7104448
            ],
            [
              37.8074665,
              48.7151677
            ],
            [
              37.7986725,
              48.7198877
            ],
            [
              37.798461,
              48.7218894
            ],
            [
              37.8158917,
              48.7219293
            ],
            [
              37.8209927,
              48.721197
            ],
            [
              37.8154232,
              48.7093198
            ],
            [
              37.8192761,
              48.7184223
            ],
            [
              37.8171211,
              48.7191435
            ],
            [
              37.8103715,
              48.7089722
            ],
            [
              37.8046691,
              48.7010383
            ],
            [
              37.8086549,
              48.7104448
            ]
          ]
        ]
      }
    },
    {
      "type": "Feature",
      "properties": {
        "change_type": "russian_gain",
        "label": "Russian territorial gain",
        "area_km2": 1.56,
        "previous_file": "deepstatemap_data_20260821.geojson",
        "current_file": "deepstatemap_data_20260822.geojson",
        "previous_date": "2026-08-21",
        "current_date": "2026-08-22",
        "day_number": 18,
        "day_index_from_latest": 12
      },
      "geometry": {
        "type": "Polygon",
        "coordinates": [
          [
            [
              37.6469557,
              48.4835431
            ],
            [
              37.631878,
              48.483841
            ],
            [
              37.6274405,
              48.4946612
            ],
            [
              37.6376762,
              48.4959066
            ],
            [
              37.6367639,
              48.4942315
            ],
            [
              37.6481573,
              48.4897439
            ],
            [
              37.6505614,
              48.4757154
            ],
            [
              37.6469557,
              48.4835431
            ]
          ]
        ]
      }
    },
    {
      "type": "Feature",
      "properties": {
        "change_type": "russian_gain",
        "label": "Russian territorial gain",
        "area_km2": 0.62,
        "previous_file": "deepstatemap_data_20260821.geojson",
        "current_file": "deepstatemap_data_20260822.geojson",
        "previous_date": "2026-08-21",
        "current_date": "2026-08-22",
        "day_number": 18,
        "day_index_from_latest": 12
      },
      "geometry": {
        "type": "Polygon",
        "coordinates": [
          [
            [
              37.6434808,
              48.5008799
            ],
            [
              37.6594888,
              48.4951865
            ],
            [
              37.6471715,
              48.4938273
            ],
            [
              37.6376762,
              48.4959066
            ],
            [
              37.6434808,
              48.5008799
            ]
          ]
        ]
      }
    },
    {
      "type": "Feature",
      "properties": {
        "change_type": "russian_gain",
        "label": "Russian territorial gain",
        "area_km2": 3.4,
        "previous_file": "deepstatemap_data_20260821.geojson",
        "current_file": "deepstatemap_data_20260822.geojson",
        "previous_date": "2026-08-21",
        "current_date": "2026-08-22",
        "day_number": 18,
        "day_index_from_latest": 12
      },
      "geometry": {
        "type": "Polygon",
        "coordinates": [
          [
            [
              37.8270652,
              48.7468709
            ],
            [
              37.8318114,
              48.7457201
            ],
            [
              37.8347017,
              48.7520603
            ],
            [
              37.8383345,
              48.7506438
            ],
            [
              37.8487339,
              48.7504447
            ],
            [
              37.8545345,
              48.75142
            ],
            [
              37.8589623,
              48.7539796
            ],
            [
              37.8627242,
              48.752251
            ],
            [
              37.8510041,
              48.7479563
            ],
            [
              37.8475246,
              48.7453028
            ],
            [
              37.8510632,
              48.7424338
            ],
            [
              37.8515115,
              48.737187
            ],
            [
              37.8453713,
              48.7360327
            ],
            [
              37.8478764,
              48.7343687
            ],
            [
              37.843373,
              48.7312481
            ],
            [
              37.8205005,
              48.7397547
            ],
            [
              37.8270652,
              48.7468709
            ]
          ]
        ]
      }
    },
    {
      "type": "Feature",
      "properties": {
        "change_type": "russian_gain",
        "label": "Russian territorial gain",
        "area_km2": 1.15,
        "previous_file": "deepstatemap_data_20260822.geojson",
        "current_file": "deepstatemap_data_20260823.geojson",
        "previous_date": "2026-08-22",
        "current_date": "2026-08-23",
        "day_number": 19,
        "day_index_from_latest": 11
      },
      "geometry": {
        "type": "Polygon",
        "coordinates": [
          [
            [
              37.1805117,
              48.3542038
            ],
            [
              37.1873384,
              48.3620027
            ],
            [
              37.1921972,
              48.3625295
            ],
            [
              37.1937616,
              48.3677735
            ],
            [
              37.1939138,
              48.3605905
            ],
            [
              37.2018684,
              48.3559571
            ],
            [
              37.2021871,
              48.35379
            ],
            [
              37.1828291,
              48.3534053
            ],
            [
              37.1613864,
              48.3514125
            ],
            [
              37.1805117,
              48.3542038
            ]
          ]
        ]
      }
    },
    {
      "type": "Feature",
      "properties": {
        "change_type": "russian_gain",
        "label": "Russian territorial gain",
        "area_km2": 3.7,
        "previous_file": "deepstatemap_data_20260822.geojson",
        "current_file": "deepstatemap_data_20260823.geojson",
        "previous_date": "2026-08-22",
        "current_date": "2026-08-23",
        "day_number": 19,
        "day_index_from_latest": 11
      },
      "geometry": {
        "type": "Polygon",
        "coordinates": [
          [
            [
              37.594958,
              50.2507926
            ],
            [
              37.6107567,
              50.2558021
            ],
            [
              37.6268095,
              50.2547934
            ],
            [
              37.6255996,
              50.2455236
            ],
            [
              37.6268952,
              50.2405027
            ],
            [
              37.6001937,
              50.2405285
            ],
            [
              37.5885963,
              50.2456012
            ],
            [
              37.594958,
              50.2507926
            ]
          ]
        ]
      }
    },
    {
      "type": "Feature",
      "properties": {
        "change_type": "russian_gain",
        "label": "Russian territorial gain",
        "area_km2": 6.86,
        "previous_file": "deepstatemap_data_20260823.geojson",
        "current_file": "deepstatemap_data_20260824.geojson",
        "previous_date": "2026-08-23",
        "current_date": "2026-08-24",
        "day_number": 20,
        "day_index_from_latest": 10
      },
      "geometry": {
        "type": "Polygon",
        "coordinates": [
          [
            [
              37.6333687,
              48.4750819
            ],
            [
              37.622156,
              48.4856385
            ],
            [
              37.6151128,
              48.4935488
            ],
            [
              37.620349,
              48.4975604
            ],
            [
              37.6284163,
              48.5067496
            ],
            [
              37.642521,
              48.5077297
            ],
            [
              37.6465707,
              48.5001974
            ],
            [
              37.6646924,
              48.5036842
            ],
            [
              37.6594888,
              48.4951865
            ],
            [
              37.6434808,
              48.5008799
            ],
            [
              37.6376762,
              48.4959066
            ],
            [
              37.6274405,
              48.4946612
            ],
            [
              37.631878,
              48.483841
            ],
            [
              37.6469557,
              48.4835431
            ],
            [
              37.6505614,
              48.4757154
            ],
            [
              37.6472135,
              48.4703363
            ],
            [
              37.6480769,
              48.4576413
            ],
            [
              37.6385185,
              48.4548211
            ],
            [
              37.63848,
              48.450629
            ],
            [
              37.6333687,
              48.4750819
            ]
          ]
        ]
      }
    },
    {
      "type": "Feature",
      "properties": {
        "change_type": "russian_gain",
        "label": "Russian territorial gain",
        "area_km2": 2.36,
        "previous_file": "deepstatemap_data_20260825.geojson",
        "current_file": "deepstatemap_data_20260826.geojson",
        "previous_date": "2026-08-25",
        "current_date": "2026-08-26",
        "day_number": 22,
        "day_index_from_latest": 8
      },
      "geometry": {
        "type": "Polygon",
        "coordinates": [
          [
            [
              37.2251372,
              48.4161602
            ],
            [
              37.219023,
              48.4298485
            ],
            [
              37.2308468,
              48.4394337
            ],
            [
              37.2372164,
              48.4484163
            ],
            [
              37.2404932,
              48.4483365
            ],
            [
              37.2395648,
              48.4543476
            ],
            [
              37.2418665,
              48.4423014
            ],
            [
              37.2358431,
              48.4310494
            ],
            [
              37.2244953,
              48.4246838
            ],
            [
              37.2263186,
              48.4209063
            ],
            [
              37.2367243,
              48.4194072
            ],
            [
              37.2326469,
              48.4167544
            ],
            [
              37.2251372,
              48.4161602
            ]
          ]
        ]
      }
    },
    {
      "type": "Feature",
      "properties": {
        "change_type": "russian_gain",
        "label": "Russian territorial gain",
        "area_km2": 4.05,
        "previous_file": "deepstatemap_data_20260825.geojson",
        "current_file": "deepstatemap_data_20260826.geojson",
        "previous_date": "2026-08-25",
        "current_date": "2026-08-26",
        "day_number": 22,
        "day_index_from_latest": 8
      },
      "geometry": {
        "type": "Polygon",
        "coordinates": [
          [
            [
              37.3867892,
              48.4933742
            ],
            [
              37.3924248,
              48.4967827
            ],
            [
              37.416742,
              48.4948994
            ],
            [
              37.437079,
              48.4881286
            ],
            [
              37.4461712,
              48.4906845
            ],
            [
              37.4446321,
              48.4847153
            ],
            [
              37.4189736,
              48.4832948
            ],
            [
              37.3956864,
              48.4858612
            ],
            [
              37.3883342,
              48.4913265
            ],
            [
              37.3806387,
              48.4933927
            ],
            [
              37.3867892,
              48.4933742
            ]
          ]
        ]
      }
    },
    {
      "type": "Feature",
      "properties": {
        "change_type": "ukrainian_recapture",
        "label": "Ukrainian recapture",
        "area_km2": 6.45,
        "previous_file": "deepstatemap_data_20260825.geojson",
        "current_file": "deepstatemap_data_20260826.geojson",
        "previous_date": "2026-08-25",
        "current_date": "2026-08-26",
        "day_number": 22,
        "day_index_from_latest": 8
      },
      "geometry": {
        "type": "Polygon",
        "coordinates": [
          [
            [
              37.61571,
              49.823452
            ],
            [
              37.617078,
              49.824791
            ],
            [
              37.628233,
              49.828063
            ],
            [
              37.629433,
              49.830529
            ],
            [
              37.633392,
              49.840982
            ],
            [
              37.632287,
              49.850879
            ],
            [
              37.634142,
              49.851668
            ],
            [
              37.647909,
              49.851347
            ],
            [
              37.647907,
              49.857949
            ],
            [
              37.6520289,
              49.8531179
            ],
            [
              37.6629811,
              49.8496757
            ],
            [
              37.666276,
              49.8461194
            ],
            [
              37.666866,
              49.8387678
            ],
            [
              37.6342395,
              49.8241062
            ],
            [
              37.6196529,
              49.8232406
            ],
            [
              37.609756,
              49.815873
            ],
            [
              37.61571,
              49.823452
            ]
          ]
        ]
      }
    },
    {
      "type": "Feature",
      "properties": {
        "change_type": "russian_gain",
        "label": "Russian territorial gain",
        "area_km2": 3.48,
        "previous_file": "deepstatemap_data_20260826.geojson",
        "current_file": "deepstatemap_data_20260827.geojson",
        "previous_date": "2026-08-26",
        "current_date": "2026-08-27",
        "day_number": 23,
        "day_index_from_latest": 7
      },
      "geometry": {
        "type": "Polygon",
        "coordinates": [
          [
            [
              37.8183857,
              48.5582736
            ],
            [
              37.8139103,
              48.5669385
            ],
            [
              37.8193662,
              48.5717259
            ],
            [
              37.8158294,
              48.575496
            ],
            [
              37.819626,
              48.5824618
            ],
            [
              37.8144112,
              48.58816
            ],
            [
              37.818144,
              48.590592
            ],
            [
              37.821106,
              48.58816
            ],
            [
              37.820656,
              48.584733
            ],
            [
              37.82467,
              48.581572
            ],
            [
              37.8286761,
              48.5771796
            ],
            [
              37.830366,
              48.5715371
            ],
            [
              37.8223703,
              48.5648535
            ],
            [
              37.8288448,
              48.561656
            ],
            [
              37.8361527,
              48.5524221
            ],
            [
              37.8224309,
              48.5461133
            ],
            [
              37.8183857,
              48.5582736
            ]
          ]
        ]
      }
    },
    {
      "type": "Feature",
      "properties": {
        "change_type": "russian_gain",
        "label": "Russian territorial gain",
        "area_km2": 2.31,
        "previous_file": "deepstatemap_data_20260827.geojson",
        "current_file": "deepstatemap_data_20260828.geojson",
        "previous_date": "2026-08-27",
        "current_date": "2026-08-28",
        "day_number": 24,
        "day_index_from_latest": 6
      },
      "geometry": {
        "type": "Polygon",
        "coordinates": [
          [
            [
              37.8510419,
              48.7607937
            ],
            [
              37.8648902,
              48.7616472
            ],
            [
              37.8843638,
              48.7664485
            ],
            [
              37.887281,
              48.7697371
            ],
            [
              37.8808293,
              48.7792463
            ],
            [
              37.8946624,
              48.7717736
            ],
            [
              37.8904079,
              48.7613725
            ],
            [
              37.8799761,
              48.757727
            ],
            [
              37.869124,
              48.7594006
            ],
            [
              37.8635928,
              48.7590934
            ],
            [
              37.8585387,
              48.7565548
            ],
            [
              37.8515569,
              48.758191
            ],
            [
              37.8389682,
              48.764865
            ],
            [
              37.8510419,
              48.7607937
            ]
          ]
        ]
      }
    },
    {
      "type": "Feature",
      "properties": {
        "change_type": "russian_gain",
        "label": "Russian territorial gain",
        "area_km2": 2.61,
        "previous_file": "deepstatemap_data_20260827.geojson",
        "current_file": "deepstatemap_data_20260828.geojson",
        "previous_date": "2026-08-27",
        "current_date": "2026-08-28",
        "day_number": 24,
        "day_index_from_latest": 6
      },
      "geometry": {
        "type": "Polygon",
        "coordinates": [
          [
            [
              37.9004187,
              48.7740565
            ],
            [
              37.9134506,
              48.7834323
            ],
            [
              37.9226689,
              48.7852681
            ],
            [
              37.9204119,
              48.7950764
            ],
            [
              37.9248466,
              48.7884306
            ],
            [
              37.9227627,
              48.7813427
            ],
            [
              37.930222,
              48.7746351
            ],
            [
              37.921347,
              48.7692917
            ],
            [
              37.8995604,
              48.7713413
            ],
            [
              37.8910919,
              48.7782862
            ],
            [
              37.9004187,
              48.7740565
            ]
          ]
        ]
      }
    },
    {
      "type": "Feature",
      "properties": {
        "change_type": "russian_gain",
        "label": "Russian territorial gain",
        "area_km2": 6.46,
        "previous_file": "deepstatemap_data_20260829.geojson",
        "current_file": "deepstatemap_data_20260830.geojson",
        "previous_date": "2026-08-29",
        "current_date": "2026-08-30",
        "day_number": 26,
        "day_index_from_latest": 4
      },
      "geometry": {
        "type": "Polygon",
        "coordinates": [
          [
            [
              36.164569,
              47.6516742
            ],
            [
              36.1706091,
              47.654871
            ],
            [
              36.1602569,
              47.6688564
            ],
            [
              36.1660688,
              47.6746137
            ],
            [
              36.1719299,
              47.6694344
            ],
            [
              36.1798788,
              47.6579929
            ],
            [
              36.1955505,
              47.6577624
            ],
            [
              36.2023186,
              47.6483531
            ],
            [
              36.2038627,
              47.6435461
            ],
            [
              36.1948236,
              47.6371212
            ],
            [
              36.1827927,
              47.6331433
            ],
            [
              36.1772864,
              47.643219
            ],
            [
              36.1719504,
              47.6450825
            ],
            [
              36.1593756,
              47.6530362
            ],
            [
              36.164569,
              47.6516742
            ]
          ]
        ]
      }
    },
    {
      "type": "Feature",
      "properties": {
        "change_type": "russian_gain",
        "label": "Russian territorial gain",
        "area_km2": 7.25,
        "previous_file": "deepstatemap_data_20260829.geojson",
        "current_file": "deepstatemap_data_20260830.geojson",
        "previous_date": "2026-08-29",
        "current_date": "2026-08-30",
        "day_number": 26,
        "day_index_from_latest": 4
      },
      "geometry": {
        "type": "Polygon",
        "coordinates": [
          [
            [
              37.084772,
              48.3625774
            ],
            [
              37.1028366,
              48.3652814
            ],
            [
              37.1032779,
              48.3630223
            ],
            [
              37.1466211,
              48.3654948
            ],
            [
              37.1660383,
              48.3603032
            ],
            [
              37.1833952,
              48.3617269
            ],
            [
              37.1894655,
              48.3718605
            ],
            [
              37.1894033,
              48.369026
            ],
            [
              37.1937616,
              48.3677735
            ],
            [
              37.1921972,
              48.3625295
            ],
            [
              37.1873384,
              48.3620027
            ],
            [
              37.1805117,
              48.3542038
            ],
            [
              37.1613864,
              48.3514125
            ],
            [
              37.1567985,
              48.3480681
            ],
            [
              37.146823,
              48.3530413
            ],
            [
              37.1440565,
              48.3576801
            ],
            [
              37.1230068,
              48.3564989
            ],
            [
              37.0955008,
              48.356304
            ],
            [
              37.0858878,
              48.3577969
            ],
            [
              37.084772,
              48.3625774
            ]
          ]
        ]
      }
    },
    {
      "type": "Feature",
      "properties": {
        "change_type": "russian_gain",
        "label": "Russian territorial gain",
        "area_km2": 0.47,
        "previous_file": "deepstatemap_data_20260829.geojson",
        "current_file": "deepstatemap_data_20260830.geojson",
        "previous_date": "2026-08-29",
        "current_date": "2026-08-30",
        "day_number": 26,
        "day_index_from_latest": 4
      },
      "geometry": {
        "type": "Polygon",
        "coordinates": [
          [
            [
              37.1792278,
              48.3748093
            ],
            [
              37.1780989,
              48.3790613
            ],
            [
              37.185725,
              48.3803486
            ],
            [
              37.186729,
              48.3936409
            ],
            [
              37.1867809,
              48.373669
            ],
            [
              37.1894655,
              48.3718605
            ],
            [
              37.1792278,
              48.3748093
            ]
          ]
        ]
      }
    },
    {
      "type": "Feature",
      "properties": {
        "change_type": "ukrainian_recapture",
        "label": "Ukrainian recapture",
        "area_km2": 2.39,
        "previous_file": "deepstatemap_data_20260830.geojson",
        "current_file": "deepstatemap_data_20260831.geojson",
        "previous_date": "2026-08-30",
        "current_date": "2026-08-31",
        "day_number": 27,
        "day_index_from_latest": 3
      },
      "geometry": {
        "type": "Polygon",
        "coordinates": [
          [
            [
              37.605246,
              49.802153
            ],
            [
              37.600134,
              49.80926
            ],
            [
              37.600514,
              49.811768
            ],
            [
              37.609756,
              49.815873
            ],
            [
              37.6196529,
              49.8232406
            ],
            [
              37.6170516,
              49.8166483
            ],
            [
              37.6246324,
              49.8144819
            ],
            [
              37.6185876,
              49.8045517
            ],
            [
              37.6117691,
              49.8017652
            ],
            [
              37.605703,
              49.795738
            ],
            [
              37.605246,
              49.802153
            ]
          ]
        ]
      }
    },
    {
      "type": "Feature",
      "properties": {
        "change_type": "russian_gain",
        "label": "Russian territorial gain",
        "area_km2": 3.27,
        "previous_file": "deepstatemap_data_20260831.geojson",
        "current_file": "deepstatemap_data_20260901.geojson",
        "previous_date": "2026-08-31",
        "current_date": "2026-09-01",
        "day_number": 28,
        "day_index_from_latest": 2
      },
      "geometry": {
        "type": "Polygon",
        "coordinates": [
          [
            [
              37.821088,
              48.7191738
            ],
            [
              37.8346854,
              48.7134577
            ],
            [
              37.8392975,
              48.7177311
            ],
            [
              37.8515724,
              48.711177
            ],
            [
              37.8588967,
              48.7055994
            ],
            [
              37.8522502,
              48.7008249
            ],
            [
              37.8441603,
              48.7044542
            ],
            [
              37.8339516,
              48.7064018
            ],
            [
              37.8251582,
              48.7054151
            ],
            [
              37.8154232,
              48.7093198
            ],
            [
              37.8209927,
              48.721197
            ],
            [
              37.821088,
              48.7191738
            ]
          ]
        ]
      }
    },
    {
      "type": "Feature",
      "properties": {
        "change_type": "russian_gain",
        "label": "Russian territorial gain",
        "area_km2": 2.8,
        "previous_file": "deepstatemap_data_20260901.geojson",
        "current_file": "deepstatemap_data_20260902.geojson",
        "previous_date": "2026-09-01",
        "current_date": "2026-09-02",
        "day_number": 29,
        "day_index_from_latest": 1
      },
      "geometry": {
        "type": "Polygon",
        "coordinates": [
          [
            [
              36.0561496,
              47.5335581
            ],
            [
              36.0638173,
              47.5528682
            ],
            [
              36.0725324,
              47.5505458
            ],
            [
              36.0652477,
              47.5268356
            ],
            [
              36.031684,
              47.526124
            ],
            [
              36.0561496,
              47.5335581
            ]
          ]
        ]
      }
    },
    {
      "type": "Feature",
      "properties": {
        "change_type": "russian_gain",
        "label": "Russian territorial gain",
        "area_km2": 10.81,
        "previous_file": "deepstatemap_data_20260901.geojson",
        "current_file": "deepstatemap_data_20260902.geojson",
        "previous_date": "2026-09-01",
        "current_date": "2026-09-02",
        "day_number": 29,
        "day_index_from_latest": 1
      },
      "geometry": {
        "type": "Polygon",
        "coordinates": [
          [
            [
              36.1058128,
              47.6022407
            ],
            [
              36.0973842,
              47.626219
            ],
            [
              36.1050837,
              47.6313628
            ],
            [
              36.1420769,
              47.6406417
            ],
            [
              36.1541812,
              47.6508709
            ],
            [
              36.1588997,
              47.6424923
            ],
            [
              36.1403591,
              47.6332495
            ],
            [
              36.1280863,
              47.6214132
            ],
            [
              36.1239917,
              47.6112924
            ],
            [
              36.1295879,
              47.6029352
            ],
            [
              36.123919,
              47.5918809
            ],
            [
              36.108522,
              47.5899233
            ],
            [
              36.1084888,
              47.5847812
            ],
            [
              36.1058128,
              47.6022407
            ]
          ]
        ]
      }
    },
    {
      "type": "Feature",
      "properties": {
        "change_type": "russian_gain",
        "label": "Russian territorial gain",
        "area_km2": 4.35,
        "previous_file": "deepstatemap_data_20260901.geojson",
        "current_file": "deepstatemap_data_20260902.geojson",
        "previous_date": "2026-09-01",
        "current_date": "2026-09-02",
        "day_number": 29,
        "day_index_from_latest": 1
      },
      "geometry": {
        "type": "Polygon",
        "coordinates": [
          [
            [
              37.5457845,
              50.2267337
            ],
            [
              37.5277193,
              50.2207553
            ],
            [
              37.5223564,
              50.229053
            ],
            [
              37.5284523,
              50.2362035
            ],
            [
              37.5274277,
              50.2431466
            ],
            [
              37.5423682,
              50.2441611
            ],
            [
              37.5700114,
              50.2368298
            ],
            [
              37.5397873,
              50.2378767
            ],
            [
              37.538752,
              50.2358741
            ],
            [
              37.5445829,
              50.2340911
            ],
            [
              37.5692796,
              50.229815
            ],
            [
              37.5457845,
              50.2267337
            ]
          ]
        ]
      }
    },
    {
      "type": "Feature",
      "properties": {
        "change_type": "russian_gain",
        "label": "Russian territorial gain",
        "area_km2": 3.69,
        "previous_file": "deepstatemap_data_20260901.geojson",
        "current_file": "deepstatemap_data_20260902.geojson",
        "previous_date": "2026-09-01",
        "current_date": "2026-09-02",
        "day_number": 29,
        "day_index_from_latest": 1
      },
      "geometry": {
        "type": "Polygon",
        "coordinates": [
          [
            [
              37.1882832,
              50.3539652
            ],
            [
              37.1613571,
              50.3437785
            ],
            [
              37.1576516,
              50.3350682
            ],
            [
              37.145107,
              50.3353411
            ],
            [
              37.1433612,
              50.3458564
            ],
            [
              37.1629631,
              50.3519389
            ],
            [
              37.1803359,
              50.3631659
            ],
            [
              37.1882832,
              50.3539652
            ]
          ]
        ]
      }
    }
  ]
}