{
  "type": "FeatureCollection",
  "metadata": {
    "updated_utc": "2026-09-30T22:28:39.006380+00:00",
    "previous_file": "deepstatemap_data_20260929.geojson",
    "current_file": "deepstatemap_data_20260930.geojson",
    "russian_gain_km2": 3.39,
    "ukrainian_recapture_km2": 0.58,
    "net_change_km2": 2.81,
    "method": "Shapely geometric difference between the latest two DeepState GeoJSON files. Area is approximate."
  },
  "features": [
    {
      "type": "Feature",
      "properties": {
        "change_type": "russian_gain",
        "label": "Russian territorial gain",
        "area_km2": 1.48
      },
      "geometry": {
        "type": "Polygon",
        "coordinates": [
          [
            [
              37.0443145,
              48.3565087
            ],
            [
              37.0420468,
              48.3610516
            ],
            [
              37.0500113,
              48.3686834
            ],
            [
              37.0699233,
              48.3615609
            ],
            [
              37.0479194,
              48.3572501
            ],
            [
              37.0408354,
              48.3492325
            ],
            [
              37.0443145,
              48.3565087
            ]
          ]
        ]
      }
    },
    {
      "type": "Feature",
      "properties": {
        "change_type": "russian_gain",
        "label": "Russian territorial gain",
        "area_km2": 1.14
      },
      "geometry": {
        "type": "Polygon",
        "coordinates": [
          [
            [
              37.0938701,
              48.3654287
            ],
            [
              37.0932236,
              48.3716677
            ],
            [
              37.1076481,
              48.3790331
            ],
            [
              37.1028366,
              48.3652814
            ],
            [
              37.084772,
              48.3625774
            ],
            [
              37.0699233,
              48.3615609
            ],
            [
              37.0938701,
              48.3654287
            ]
          ]
        ]
      }
    },
    {
      "type": "Feature",
      "properties": {
        "change_type": "russian_gain",
        "label": "Russian territorial gain",
        "area_km2": 0.77
      },
      "geometry": {
        "type": "Polygon",
        "coordinates": [
          [
            [
              37.1045618,
              48.3874184
            ],
            [
              37.1115163,
              48.3883046
            ],
            [
              37.1186416,
              48.3806975
            ],
            [
              37.1290698,
              48.3742659
            ],
            [
              37.1165817,
              48.3797284
            ],
            [
              37.1076481,
              48.3790331
            ],
            [
              37.1045618,
              48.3874184
            ]
          ]
        ]
      }
    },
    {
      "type": "Feature",
      "properties": {
        "change_type": "ukrainian_recapture",
        "label": "Ukrainian recapture",
        "area_km2": 0.58
      },
      "geometry": {
        "type": "Polygon",
        "coordinates": [
          [
            [
              37.6155735,
              49.7995608
            ],
            [
              37.61548580977689,
              49.800086973649
            ],
            [
              37.621704,
              49.797654
            ],
            [
              37.6293824,
              49.7969774
            ],
            [
              37.6361161,
              49.7946936
            ],
            [
              37.6293631,
              49.7897152
            ],
            [
              37.6155735,
              49.7995608
            ]
          ]
        ]
      }
    }
  ]
}